都道府県コード又は市区町村コード,NO,都道府県名,市区町村名,title,名称_カナ,種別,住所,方書,lat,lng,アクセス方法,駐車場情報,電話番号,内線番号,FAX番号,法人番号,団体名,認可等年月日,収容定員,受入年齢,利用可能曜日,開始時間,終了時間,利用可能日時特記事項,一時預かりの有無,URL,備考
270008,,大阪府,,八木こども園,ヤギコドモエン,,大阪府岸和田市今木町397-1,,34.464897,135.417191,,,072-445-2472,,,,(福)阪南福祉事業会,,,,,,,,,,
270008,,大阪府,,認定こども園　五風会保育園,ニンテイコドモエン　ゴフウカイホイクエン,,大阪府岸和田市岸城町18-11,,34.45713,135.370743,,,072-431-3449,,,,(福)五風会,,,,,,,,,,
270008,,大阪府,,山直南こども園,ヤマダイミナミコドモエン,,大阪府岸和田市山直中町1012-1,,34.439068,135.434418,,,072-445-0482,,,,(福)阪南福祉事業会,,,,,,,,,,
270008,,大阪府,,星光こども園,セイコウコドモエン,,大阪府岸和田市荒木町1-28-17,,34.4701,135.3983,,,072-443-4819,,,,(福)星光保育園,,,,,,,,,,
270008,,大阪府,,はちまん認定こども園,ハチマンニンテイコドモエン,,大阪府岸和田市八幡町13-85,,34.481178,135.388062,,,072-438-4541,,,,(福)森の子会,,,,,,,,,,
270008,,大阪府,,この花こども園,コノハナコドモエン,,大阪府岸和田市春木旭町3-16,,34.475307,135.392212,,,072-444-5087,,,,(福)この花保育園,,,,,,,,,,
270008,,大阪府,,認定こども園　久米田保育園,ニンテイコドモエン　クメダホイクエン,,大阪府岸和田市下池田町1-22-10,,34.466839,135.404404,,,072-443-1056,,,,(福)久米田保育園,,,,,,,,,,
270008,,大阪府,,認定こども園　やまだい保育園,ニンテイコドモエン　ヤマダイホイクエン,,大阪府岸和田市今木町160,,34.465618,135.420685,,,072-444-6857,,,,(福)やまだい福祉会,,,,,,,,,,
270008,,大阪府,,認定こども園　光明保育園,ニンテイコドモエン　コウミョウホイクエン,,大阪府岸和田市尾生町560-1,,34.442219,135.410522,,,072-443-6410,,,,(福)光明福祉会,,,,,,,,,,
270008,,大阪府,,認定こども園　光明保育園　分園はな,コウミョウホイクエン　ブンエンハナ,,大阪府岸和田市尾生町1186-1,,34.442219,135.410522,,,072-441-1438,,,,(福)光明福祉会,,,,,,,,,,
270008,,大阪府,,天神山こども園,テンジンヤマコドモエン,,大阪府岸和田市天神山町2-5-1,,34.497761,135.415558,,,072-426-6031,,,,(福)千喜利会,,,,,,,,,,
270008,,大阪府,,東岸和田こども園,ヒガシキシワダコドモエン,,大阪府岸和田市土生町5-1-34,,34.742268,135.564438,,,072-426-6000,,,,(福)恵壽会,,,,,,,,,,
270008,,大阪府,,認定こども園　ピープル久米田チャイルドスクール,ニンテイコドモエン　ピープルクメダチャイルドスクール,,大阪府岸和田市池尻町693-2,,34.460907,135.42009,,,072-448-6236,,,,(福)光生会,,,,,,,,,,
270008,,大阪府,,ピープルブランチスクール大空,ピープルブランチスクールオオゾラ,,大阪府岸和田市池尻町695-7,,34.457561,135.411194,,,072-445-3300,,,,(福)光生会,,,,,,,,,,
270008,,大阪府,,認定こども園　ピープル八木南チャイルドスクール,ニンテイコドモエン　ピープルヤギミナミチャイルドスクール,,大阪府岸和田市小松里町1119,,34.459278,135.406143,,,072-441-0506,,,,(福)光生会,,,,,,,,,,
270008,,大阪府,,ピープルブランチスクール小松里,ピープルブランチスクールコマツリ,,大阪府岸和田市小松里町911-1,,34.462009,135.40387,,,072-448-6617,,,,(福)光生会,,,,,,,,,,
270008,,大阪府,,東光こども園,トウコウコドモエン,,大阪府岸和田市藤井町2-10-20,,34.463955,135.384628,,,072-429-1050,,,,(福)和秀会,,,,,,,,,,
270008,,大阪府,,認定こども園　ピープル大芝チャイルドスクール,ニンテイコドモエン　ピープルオオシバチャイルドスクール,,大阪府岸和田市磯上町3-14-12,,34.489349,135.385773,,,072-438-3571,,,,(福)光生会,,,,,,,,,,
270008,,大阪府,,認定こども園　Ｄｏｌｃｅ　Ｂａｍｂｉｎｉ,ニンテイコドモエン　ドルチェバンビーニ,,大阪府岸和田市荒木町2-4-36,,34.475475,135.400421,,,072-445-2671,,,,(福)真友真会,,,,,,,,,,
270008,,大阪府,,認定こども園　春木カトリック幼稚園,ニンテイコドモエン　ハルキカトリックヨウチエン,,大阪府岸和田市吉井町1-6-15,,34.481487,135.396118,,,072-443-5225,,,,(学)ザビエル学園,,,,,,,,,,
270008,,大阪府,,池田市立なかよしこども園,イケダシリツナカヨシコドモエン,,大阪府池田市石橋4-6-1,,34.802982,135.445999,,,072-761-6751,,,,池田市,,,,,,,,,,
270008,,大阪府,,池田市立ひかりこども園,イケダシリツヒカリコドモエン,,大阪府池田市神田2-4-1,,34.810757,135.42511,,,072-752-0414,,,,池田市,,,,,,,,,,
270008,,大阪府,,宣真認定こども園,センシンニンテイコドモエン,,大阪府池田市天神1-1-41,,34.810513,135.438599,,,072-762-4500,,,,(学)宣真学園,,,,,,,,,,
270008,,大阪府,,ひめむろこども園,ヒメムロコドモエン,,大阪府池田市姫室町10-1,,34.81802,135.422409,,,072-754-0084,,,,(学)岡辻学園,,,,,,,,,,
270008,,大阪府,,亀之森幼稚園・かめのもり乳児園,カメノモリヨウチエンカメノモリニュウジエン,,大阪府池田市住吉2-3-1,,34.802193,135.439926,,,072-762-1813,,,,(学)亀之森住吉学園,,,,,,,,,,
270008,,大阪府,,さつきこども園,サツキコドモエン,,大阪府池田市城南2-4-20,,34.819,135.430527,,,072-751-6830,,,,(福)心育会,,,,,,,,,,
270008,,大阪府,,池田旭丘幼稚園・いけだあさひがおか乳児園,イケダアサヒガオカヨウチエンイケダアサヒガオカニュウジエン,,大阪府池田市旭丘1-9-21,,34.822041,135.446686,,,072-751-8152,,,,(学)森上学園,,,,,,,,,,
270008,,大阪府,,石橋文化幼稚園,イシバシブンカヨウチエン,,大阪府池田市石橋2-12-12,,34.809044,135.446518,,,072-762-0020,,,,(学)石橋文化学園,,,,,,,,,,
270008,,大阪府,,認定こども園旭ヶ丘学園,ニンテイコドモエンアサヒガオカガクエン,,大阪府吹田市朝日が丘町1-5,,34.767864,135.520264,,,06-6388-0619,,,,(福)旭ヶ丘学園,,,,,,,,,,
270008,,大阪府,,認定こども園旭ヶ丘学園千一分室,ニンテイコドモエンアサヒガオカガクエンセンイチブンシツ,,大阪府吹田市片山町4-34-11,,34.770164,135.527359,,,06-6190-8701,,,,(福)旭ヶ丘学園,,,,,,,,,,
270008,,大阪府,,幼保連携型認定こども園千里山やまて学園,ヨウホレンケイガタニンテイコドモエンセンリヤマヤマテガクエン,,大阪府吹田市山手町2-17-22,,34.767933,135.510666,,,06-6388-1821,,,,(福)千里山山手学園,,,,,,,,,,
270008,,大阪府,,認定こども園もみの木保育園,ニンテイコドモエンモミノキホイクエン,,大阪府吹田市東御旅町5-53,,34.75227,135.529083,,,06-6382-5076,,,,(福)吹田みどり福祉会,,,,,,,,,,
270008,,大阪府,,認定こども園南ヶ丘こども園,ニンテイコドモエンミナミガオカコドモエン,,大阪府吹田市佐井寺南が丘3-5,,34.780941,135.518524,,,06-6330-1552,,,,(福)大阪アカシヤ福祉会,,,,,,,,,,
270008,,大阪府,,認定こども園かんらんこども園,ニンテイコドモエンカンランコドモエン,,大阪府吹田市南金田2-18-7,,34.755611,135.503616,,,06-6384-5820,,,,(福)南友会,,,,,,,,,,
270008,,大阪府,,認定こども園もみの木千里保育園,ニンテイコドモエンモミノキセンリホイクエン,,大阪府吹田市山田北5-15,,34.809517,135.519394,,,06-6876-1550,,,,(福)吹田みどり福祉会,,,,,,,,,,
270008,,大阪府,,認定こども園蓮美幼児学園千里丘キンダースクール,ニンテイコドモエンレンビヨウジガクエンセンリオカキンダースクール,,大阪府吹田市千里丘北1-3,,34.799576,135.543518,,,06-6876-4154,,,,(福)光聖会,,,,,,,,,,
270008,,大阪府,,吹田くすのきこども園,スイタクスノキコドモエン,,大阪府吹田市南吹田5-20-7,,34.751183,135.500732,,,06-6170-5001,,,,(福)耕心会,,,,,,,,,,
270008,,大阪府,,千里ニュータウンこども園,センリニュータウンコドモエン,,大阪府吹田市佐竹台2-3-1,,34.792469,135.514404,,,06-6871-2212,,,,(福)藍野福祉会,,,,,,,,,,
270008,,大阪府,,認定こども園千里山グレース幼稚園,ニンテイコドモエンセンリヤマグレースヨウチエン,,大阪府吹田市千里山東2-18-43,,34.776817,135.507599,,,06-6388-0306,,,,(学)千里山学院,,,,,,,,,,
270008,,大阪府,,幼保連携型認定こども園彩つばさこども園,ヨウホレンケイガタニンテイコドモエンイロドリツバサコドモエン,,大阪府吹田市千里丘北1-14,,34.799576,135.543518,,,06-6876-0283,,,,(福)博光福祉会,,,,,,,,,,
270008,,大阪府,,吹田市立はぎのきこども園,スイタシリツハギノキコドモエン,,大阪府吹田市古江台2-11-4,,34.815823,135.507324,,,06-6872-1012,,,,吹田市,,,,,,,,,,
270008,,大阪府,,吹田市立認定こども園　佐竹台幼稚園,スイタシリツニンテイコドモエンサタケダイヨウチエン,,大阪府吹田市佐竹台5-12-1,,34.789524,135.519806,,,06-6871-2234,,,,吹田市,,,,,,,,,,
270008,,大阪府,,吹田市立認定こども園　吹田第一幼稚園,スイタシリツニンテイコドモエンスイタダイイチヨウチエン,,大阪府吹田市元町30-44,,34.759964,135.522583,,,06-6381-0049,,,,吹田市,,,,,,,,,,
270008,,大阪府,,吹田市立認定こども園　吹田南幼稚園,スイタシリツニンテイコドモエンスイタミナミヨウチエン,,大阪府吹田市南吹田5-12-2,,34.752476,135.504608,,,06-6386-2677,,,,吹田市,,,,,,,,,,
270008,,大阪府,,吹田市立認定こども園　千里第二幼稚園,スイタシリツニンテイコドモエンセンリダイニヨウチエン,,大阪府吹田市千里山松が丘25-1,,34.779022,135.509109,,,06-6380-7451,,,,吹田市,,,,,,,,,,
270008,,大阪府,,吹田市立認定こども園　岸部第一幼稚園,スイタシリツニンテイコドモエンキシベダイイチヨウチエン,,大阪府吹田市岸部中2-19-1,,34.776958,135.536179,,,06-6389-2623,,,,吹田市,,,,,,,,,,
270008,,大阪府,,吹田市立認定こども園　豊津第一幼稚園,スイタシリツニンテイコドモエントヨツダイイチヨウチエン,,大阪府吹田市江坂町1-15-42,,34.761978,135.499725,,,06-6384-8301,,,,吹田市,,,,,,,,,,
270008,,大阪府,,吹田市立認定こども園　山田第一幼稚園,スイタシリツニンテイコドモエンヤマダダイイチヨウチエン,,大阪府吹田市山田東2-33-3,,34.799603,135.52858,,,06-6877-5858,,,,吹田市,,,,,,,,,,
270008,,大阪府,,吹田市立認定こども園　山田第三幼稚園,スイタシリツニンテイコドモエンヤマダダイサンヨウチエン,,大阪府吹田市山田西1-4-1,,34.793007,135.532043,,,06-6877-4571,,,,吹田市,,,,,,,,,,
270008,,大阪府,,泉大津市立かみじょう認定こども園,イズミオオツシリツカミジョウニンテイコドモエン,,大阪府泉大津市東助松町4-8-18,,34.511787,135.422363,,,0725-32-2212,,,,泉大津市,,,,,,,,,,
270008,,大阪府,,泉大津市立くすのき認定こども園,イズミオオツシリツクスノキニンテイコドモエン,,大阪府泉大津市我孫子2-7-1,,34.492161,135.412399,,,0725-22-0057,,,,泉大津市,,,,,,,,,,
270008,,大阪府,,泉大津市立えびす認定こども園,イズミオオツシリツエビスニンテイコドモエン,,大阪府泉大津市下之町4-7,,34.500843,135.397903,,,0725-32-0855,,,,泉大津市,,,,,,,,,,
270008,,大阪府,,認定こども園アイビースクール,ニンテイコドモエンアイビースクール,,大阪府泉大津市二田町3-5-32,,34.505775,135.414459,,,0725-31-4545,,,,(福)夢らんど二田,,,,,,,,,,
270008,,大阪府,,認定こども園アンビー,ニンテイコドモエンアンビー,,大阪府泉大津市旭町22-28,,34.501545,135.409363,,,0725-20-2001,,,,(福)夢らんど二田,,,,,,,,,,
270008,,大阪府,,みらいずこども園,ミライズコドモエン,,大阪府泉大津市北豊中町1-2-15,,34.498863,135.423279,,,0725-23-0253,,,,(福)豊中福祉会,,,,,,,,,,
270008,,大阪府,,みらいずこども園（分園）,ミライズコドモエン（ブンエン）,,大阪府泉大津市北豊中町1-7-4,,34.498837,135.423325,,,0725-23-0253,,,,(福)豊中福祉会,,,,,,,,,,
270008,,大阪府,,認定こども園ぱる,ニンテイコドモエンパル,,大阪府泉大津市西港町9-7,,34.504368,135.397934,,,0725-32-0375,,,,(福)因明会,,,,,,,,,,
270008,,大阪府,,認定こども園ぱる（分園）,ニンテイコドモエンパル（ブンエン）,,大阪府泉大津市西港町3-10,,34.503956,135.398102,,,0725-32-0375,,,,(福)因明会,,,,,,,,,,
270008,,大阪府,,南海かもめ認定こども園,ナンカイカモメニンテイコドモエン,,大阪府泉大津市戎町3-4,,34.500683,135.402725,,,0725-23-8068,,,,(福)南海福祉事業会,,,,,,,,,,
270008,,大阪府,,すこやか認定こども園,スコヤカニンテイコドモエン,,大阪府泉大津市東豊中町3-1-15,,34.490326,135.42627,,,0725-45-0012,,,,(学)村川学園,,,,,,,,,,
270008,,大阪府,,とれぞあ子ども園,トレゾアコドモエン,,大阪府泉大津市池浦町3-5-8,,34.442219,135.410522,,,0725-33-3003,,,,(福)女子慈教寮,,,,,,,,,,
270008,,大阪府,,認定こども園　木島幼稚園,ニンテイコドモエン　キシマヨウチエン,,大阪府貝塚市三ﾂ松2334-1,,34.497761,135.415558,,,072-446-3901,,,,(学)長栄学園,,,,,,,,,,
270008,,大阪府,,貝塚中央こども園,カイヅカチュウオウコドモエン,,大阪府貝塚市橋本1060-5,,34.742268,135.564438,,,072-433-1319,,,,(福)貝塚中央福祉会,,,,,,,,,,
270008,,大阪府,,東山こども園,ヒガシヤマコドモエン,,大阪府貝塚市東山7-6-12,,34.408875,135.388321,,,072-421-2005,,,,(福)貝塚中央福祉会,,,,,,,,,,
270008,,大阪府,,認定こども園　パルティ道教寺,ニンテイコドモエン　パルティドウキョウジ,,大阪府貝塚市半田1-3-6,,34.439232,135.373093,,,072-427-8969,,,,(福)七彩学舎,,,,,,,,,,
270008,,大阪府,,認定こども園　ピアニィ道教寺,ニンテイコドモエン　ピアニィドウキョウジ,,大阪府貝塚市麻生中626,,34.434589,135.373978,,,072-493-1330,,,,(福)七彩学舎,,,,,,,,,,
270008,,大阪府,,認定こども園　橋本保育所,ニンテイコドモエン　ハシモトホイクショ,,大阪府貝塚市橋本642,,34.42067,135.36792,,,072-423-0066,,,,(福)白小鳩福祉事業会,,,,,,,,,,
270008,,大阪府,,貝塚南こども園,カイヅカミナミコドモエン　,,大阪府貝塚市地蔵堂238-1,,34.427299,135.353378,,,072-432-4735,,,,(福)貝塚南保育園,,,,,,,,,,
270008,,大阪府,,まーぶるこども園,マーブルコドモエン,,大阪府貝塚市半田82-12,,34.441555,135.371918,,,072-438-2345,,,,(福)貝塚中央福祉会,,,,,,,,,,
270008,,大阪府,,認定こども園　永寿台保育園,ニンテイコドモエン　エイジュダイホイクエン,,大阪府貝塚市三ﾂ松2230-5,,34.406639,135.37677,,,072-446-4387,,,,(福)千寿会,,,,,,,,,,
270008,,大阪府,,わきはまこども園,ワキハマコドモエン,,大阪府貝塚市脇浜3-31-8,,34.443314,135.345383,,,072-431-2151,,,,(福)脇浜保育園,,,,,,,,,,
270008,,大阪府,,幼保連携型認定こども園　久保保育所,ヨウホレンケイガタニンテイコドモエン　クボホイクショ,,大阪府貝塚市久保271-3,,34.444366,135.377625,,,072-431-9206,,,,(福)白小鳩福祉事業会,,,,,,,,,,
270008,,大阪府,,おおぞらこども園,オオゾラコドモエン,,大阪府貝塚市二色2-11-1,,34.44714,135.342545,,,072-432-5222,,,,(福)脇浜保育園,,,,,,,,,,
270008,,大阪府,,認定こども園　こぎ幼稚園,ニンテイコドモエン　コギヨウチエン,,大阪府貝塚市畠中2-20-8,,34.43668,135.354584,,,072-422-1641,,,,(学)長楽寺学園,,,,,,,,,,
270008,,大阪府,,貝塚市立木島認定こども園,カイヅカシリツキシマニンテイコドモエン,,大阪府貝塚市三ﾂ松2920,,34.412716,135.380203,,,072-446-4139,,,,貝塚市,,,,,,,,,,
270008,,大阪府,,貝塚市立津田認定こども園,カイヅカシリツツダニンテイコドモエン,,大阪府貝塚市津田南町10-1,,34.452656,135.36145,,,072-422-1786,,,,貝塚市,,,,,,,,,,
270008,,大阪府,,貝塚市立葛城認定こども園,カイヅカシリツカツラギニンテイコドモエン,,大阪府貝塚市木積606,,34.39592,135.390671,,,072-446-0227,,,,貝塚市,,,,,,,,,,
270008,,大阪府,,貝塚市立三ツ松認定こども園,カイヅカシリツミツマツニンテイコドモエン,,大阪府貝塚市三ﾂ松2203-1,,34.408054,135.377502,,,072-446-7158,,,,貝塚市,,,,,,,,,,
270008,,大阪府,,幼保連携型認定こども園橋波幼児舎,ヨウホレンケイガタニンテイコドモエン　ハシバヨウジシャ,,大阪府守口市大宮通1-14-20,,34.73275,135.57608,,,06-6998-5321,,,,(福)花修会,,,,,,,,,,
270008,,大阪府,,寺内さくらこども園,ジナイサクラコドモエン,,大阪府守口市寺内町2-9-16,,34.733604,135.565689,,,06-6991-0497,,,,(福)恵育会,,,,,,,,,,
270008,,大阪府,,幼保連携型認定こども園高瀬ひまわりこども園,ヨウホレンケイガタニンテイコドモエン　タカセヒマワリコドモエン,,大阪府守口市馬場町1-7-18,,34.727577,135.562576,,,06-6996-0301,,,,(福)恵由福祉会,,,,,,,,,,
270008,,大阪府,,にしき認定こども園,ニシキニンテイコドモエン,,大阪府守口市寺方本通4-4-22,,34.723129,135.580032,,,06-6997-4008,,,,(福)和修会,,,,,,,,,,
270008,,大阪府,,認定こども園御幸幼稚園,ニンテイコドモエン　ミユキヨウチエン,,大阪府守口市桃町2-8 ,,34.740395,135.562469,,,06-6991-1822,,,,(学)山添学園,,,,,,,,,,さくらんぼ保育園と一体で認定こども園に認定されている。
270008,,大阪府,,さくらんぼ保育園,サクランボホイクエン,,大阪府守口市梅町3-2,,34.739864,135.563309,,,06-6993-2570,,,,(学)山添学園,,,,,,,,,,御幸幼稚園と一体で認定こども園に認定されている。
270008,,大阪府,,認定こども園来迎寺学園,ニンテイコドモエン　ライコウジガクエン,,大阪府守口市佐太中町6-53-12,,34.763111,135.590851,,,06-6902-3170,,,,(福)来迎寺学園,,,,,,,,,,
270008,,大阪府,,幼保連携型認定こども園土居ひまわりこども園,ヨウホレンケイガタニンテイコドモエン　ドイヒマワリコドモエン,,大阪府守口市早苗町6-19,,34.73267,135.561295,,,06-6991-2441,,,,(福)恵由福祉会,,,,,,,,,,
270008,,大阪府,,認定こども園一乗寺学園,ニンテイコドモエン　イチジョウジガクエン,,大阪府守口市金田町1-48-18,,34.755318,135.591949,,,06-6901-2400,,,,(福)一乗寺学園,,,,,,,,,,
270008,,大阪府,,幼保連携型認定こども園大阪国際大和田幼稚園,ヨウホレンケイガタニンテイコドモエン　オオサカコクサイオオワダヨウチエン,,大阪府守口市藤田町6-21-57,,34.748039,135.603439,,,06-6902-5931,,,,(学)大阪国際学園,,,,,,,,,,
270008,,大阪府,,幼保連携型認定こども園たちばな東こども園,ヨウホレンケイガタニンテイコドモエン　タチバナヒガシコドモエン,,大阪府守口市大久保町4-1-20,,34.753204,135.597672,,,06-6901-2763,,,,(福)たちばな福祉会,,,,,,,,,,
270008,,大阪府,,認定こども園白鳩チルドレンセンター八雲中,ニンテイコドモエン　シロハトチルドレンセンターヤクモナカ,,大阪府守口市八雲中町1-22-3,,34.744061,135.567108,,,06-6909-0061,,,,(福)白鳩会,,,,,,,,,,
270008,,大阪府,,守口中央こども園,モリグチチュウオウコドモエン,,大阪府守口市佐太中町1-4-18,,34.756264,135.580048,,,06-6901-0521,,,,(福)リーベリー福祉会,,,,,,,,,,
270008,,大阪府,,認定こども園　金田幼稚園,ニンテイコドモエン　キンダヨウチエン,,大阪府守口市金田町2-27-10,,34.75687,135.59256,,,06-6901-8873,,,,(学)山田学園,,,,,,,,,,
270008,,大阪府,,学校法人津嶋学園　認定こども園　三郷幼稚園,ガッコウホウジンツシマガクエン　ニンテイコドモエン　サンゴウヨウチエン,,大阪府守口市大枝東町2-9,,34.735126,135.568802,,,06-6991-1881,,,,(学)津嶋学園,,,,,,,,,,
270008,,大阪府,,守口市立外島認定こども園,モリグチシリツソトジマニンテイコドモエン,,大阪府守口市外島町2-48,,34.442219,135.410522,,,06-6997-0484,,,,守口市,,,,,,,,,,
270008,,大阪府,,認定こども園　白百合幼稚園,ニンテイコドモエン　シラユリヨウチエン,,大阪府守口市梶町1-55-8,,34.497761,135.415558,,,06-6901-2881,,,,(学)中塚学園,,,,,,,,,,
270008,,大阪府,,幼稚園型認定こども園　守口東幼稚園　まこと保育園,ヨウチエンガタニンテイコドモエン　モリグチヒガシヨウチエン　マコトホイクエン,,大阪府守口市寺方本通4-3-12,,34.742268,135.564438,,,06-6996-8787,,,,(学)守口東学園,,,,,,,,,,
270008,,大阪府,,守口市立あおぞら認定こども園,モリグチシリツアオゾラニンテイコドモエン,,大阪府守口市寺方元町4-1-8,,34.724388,135.569931,,,06-6992-1674,,,,守口市,,,,,,,,,,
270008,,大阪府,,認定こども園　梶らいこうじ学園,ニンテイコドモエン　カジライコウジガクエン,,大阪府守口市梶町2-21-10,,34.750114,135.588776,,,06-6902-1160,,,,(福)来迎寺学園,,,,,,,,,,
270008,,大阪府,,幼保連携型認定こども園　ゆずり葉こども園,ヨウホレンケイガタニンテイコドモエン　ユズリハコドモエン,,大阪府守口市藤田町4-27-21,,34.748608,135.601044,,,06-6903-8406,,,,(福)白鳩会,,,,,,,,,,
270008,,大阪府,,幼保連携型認定こども園　みゆき西こども園,ヨウホレンケイガタニンテイコドモエン　ミユキニシコドモエン,,大阪府守口市八雲西町2-27-9,,34.747173,135.565964,,,06-6991-2901,,,,(学)山添学園,,,,,,,,,,
270008,,大阪府,,幼保連携型認定こども園　ひかり保育園,ヨウホレンケイガタニンテイコドモエン　ヒカリホイクエン,,大阪府守口市八雲東町2-39-13,,34.744762,135.578568,,,06-6909-3344,,,,(福)白ばら学園,,,,,,,,,,
270008,,大阪府,,北てらかた認定こども園,キタテラカタニンテイコドモエン,,大阪府守口市寺方本通1-3-4,,34.725677,135.573349,,,06-6998-7424,,,,(福)和修会,,,,,,,,,,
270008,,大阪府,,守口市立にじいろ認定こども園,モリグチシリツニジイロニンテイコドモエン,,大阪府守口市藤田町1-57-19,,34.749916,135.595474,,,06-6909-1122,,,,守口市,,,,,,,,,,
270008,,大阪府,,幼稚園型認定こども園　寺方幼稚園,ヨウチエンガタニンテイコドモエン　テラカタヨウチエン,,大阪府守口市寺方元町2-2-12,,34.726021,135.569122,,,06-6992-7090,,,,(学)江端学園,,,,,,,,,,
270008,,大阪府,,認定こども園たちばな保育園,ニンテイコドモエンタチバナホイクエン,,大阪府茨木市片桐町14-10,,34.821575,135.5728,,,072-622-2777,,,,(福)裕榮福祉会,,,,,,,,,,
270008,,大阪府,,たんぽぽ学園,タンポポガクエン,,大阪府茨木市玉櫛1-3-1,,34.803925,135.57164,,,072-632-6669,,,,(福)つつみ会,,,,,,,,,,
270008,,大阪府,,末広認定こども園,スエヒロニンテイコドモエン,,大阪府茨木市末広町8-27,,34.819866,135.579178,,,072-634-4708,,,,(福)親和会,,,,,,,,,,
270008,,大阪府,,安威たんぽぽ学園,アイタンポポガクエン,,大阪府茨木市南安威2-1-13,,34.844875,135.562988,,,072-643-4929,,,,(福)つつみ会,,,,,,,,,,
270008,,大阪府,,認定こども園さんすい学園,ニンテイコドモエンサンスイガクエン,,大阪府茨木市東太田3-8-3,,34.840458,135.580963,,,072-626-9047,,,,(福)山善福祉会,,,,,,,,,,
270008,,大阪府,,認定こども園ちとせ學院,ニンテイコドモエンチトセガクイン,,大阪府茨木市庄2-7-35,,34.824253,135.581329,,,072-626-2191,,,,(福)秀幸福祉会,,,,,,,,,,
270008,,大阪府,,天王こども園,テンノウコドモエン,,大阪府茨木市大正町3-16,,34.794376,135.560837,,,072-632-1500,,,,(福)天王福祉会,,,,,,,,,,
270008,,大阪府,,認定こども園白川敬愛保育園,ニンテイコドモエンシラカワケイアイホイクエン,,大阪府茨木市白川2-13-25,,34.816761,135.600616,,,072-637-1313,,,,(福)智恩福祉会,,,,,,,,,,
270008,,大阪府,,認定こども園こどもの園敬愛保育園,ニンテイコドモエンコドモノソノケイアイホイクエン,,大阪府茨木市中穂積3-1-22,,34.816006,135.555786,,,072-645-0005,,,,(福)智恩福祉会,,,,,,,,,,
270008,,大阪府,,認定こども園おとのは学園,ニンテイコドモエンオトノハガクエン,,大阪府茨木市平田1-29-38,,34.803387,135.586075,,,072-637-1122,,,,(福)山善福祉会,,,,,,,,,,
270008,,大阪府,,たんぽぽ中条学園,タンポポチュウジョウガクエン,,大阪府茨木市東中条町8-6,,34.812992,135.569794,,,072-627-0555,,,,(福)つつみ会,,,,,,,,,,
270008,,大阪府,,認定こども園玉櫛たちばな保育園,ニンテイコドモエンタマクシタチバナホイクエン,,大阪府茨木市東奈良2-8-21,,34.802612,135.568634,,,072-632-5821,,,,(福)裕榮福祉会,,,,,,,,,,
270008,,大阪府,,認定こども園郡山敬愛保育園,ニンテイコドモエンコオリヤマケイアイホイクエン,,大阪府茨木市新郡山2-2-20,,34.83107,135.544113,,,072-640-0202,,,,(福)智恩福祉会,,,,,,,,,,
270008,,大阪府,,松ヶ本認定こども園,マツガモトニンテイコドモエン,,大阪府茨木市松ヶ本町4-40,,34.813824,135.559586,,,072-626-1677,,,,(福)親和会,,,,,,,,,,
270008,,大阪府,,認定こども園豊原学園,ニンテイコドモエントヨハラガクエン,,大阪府茨木市豊原町14-14,,34.841724,135.546875,,,072-640-0017,,,,(福)山善福祉会,,,,,,,,,,
270008,,大阪府,,認定こども園中穂積敬愛保育園,ニンテイコドモエンナカホヅミケイアイホイクエン,,大阪府茨木市中穂積1-2-31,,34.816982,135.55722,,,072-631-1818,,,,(福)智恩福祉会,,,,,,,,,,
270008,,大阪府,,認定こども園くるみ敬愛保育園,ニンテイコドモエンクルミケイアイホイクエン,,大阪府茨木市沢良宜東町14-35,,34.797096,135.5728,,,072-630-1313,,,,(福)智恩福祉会,,,,,,,,,,
270008,,大阪府,,認定こども園ちとせ學院Ｄｕｅ南茨木,ニンテイコドモエンチトセガクインドゥミナミイバラキ,,大阪府茨木市沢良宜西1-10-31,,34.799343,135.565048,,,072-638-9191,,,,(福)秀幸福祉会,,,,,,,,,,
270008,,大阪府,,たんぽぽｔｒｉａｎｇｌｅ学園,タンポポトライアングルガクエン,,大阪府茨木市玉櫛2-11-24,,34.801334,135.573318,,,072-646-8333,,,,(福)つつみ会,,,,,,,,,,
270008,,大阪府,,認定こども園　東さくら保育園,ニンテイコドモエン　ヒガシサクラホイクエン,,大阪府茨木市桑田町24-18,,34.809887,135.586639,,,072-632-4807,,,,(福)育成福祉会,,,,,,,,,,
270008,,大阪府,,山手台保育園,ヤマテダイホイクエン,,大阪府茨木市山手台3-28-23,,34.860973,135.55545,,,072-649-0874,,,,(福)晴誉会,,,,,,,,,,
270008,,大阪府,,彩都保育園,サイトホイクエン,,大阪府茨木市彩都あさぎ5-12-2,,34.849804,135.527222,,,072-641-8645,,,,(福)晴誉会,,,,,,,,,,
270008,,大阪府,,認定こども園　いぶきの丘学園,ニンテイコドモエン　イブキノオカガクエン,,大阪府茨木市東太田1-4-10,,34.83585,135.578308,,,072-626-0088,,,,(福)山善福祉会,,,,,,,,,,
270008,,大阪府,,あいの三島こども園,アイノミシマコドモエン,,大阪府茨木市三島町2-28,,34.830376,135.579376,,,072-622-2095,,,,(福)藍野福祉会,,,,,,,,,,
270008,,大阪府,,認定こども園　ちとせ學院　めぐみの森,ニンテイコドモエンチトセガクインメグミノモリ,,大阪府茨木市戸伏13-35,,34.822002,135.578568,,,072-626-1606,,,,(福)秀幸福祉会,,,,,,,,,,
270008,,大阪府,,花たちばな認定こども園,ハナタチバナニンテイコドモエン,,大阪府茨木市稲葉町16-14,,34.810749,135.576996,,,072-665-6500,,,,(福)裕榮福祉会,,,,,,,,,,
270008,,大阪府,,認定こども園　いばらき大谷学園,ニンテイコドモエンイバラキオオタニガクエン,,大阪府茨木市別院町3-31,,34.817715,135.574326,,,072-624-0203,,,,(宗)茨木別院,,,,,,,,,,
270008,,大阪府,,茨木市立　認定こども園茨木幼稚園,イバラキシリツニンテイコドモエンイバラキヨウチエン,,大阪府茨木市片桐町6-25,,34.820446,135.570236,,,072-622-2766,,,,茨木市,,,,,,,,,,
270008,,大阪府,,茨木市立　認定こども園福井幼稚園,イバラキシリツニンテイコドモエンフクイヨウチエン,,大阪府茨木市太田2-9-23,,34.842701,135.575821,,,072-626-4015,,,,茨木市,,,,,,,,,,
270008,,大阪府,,茨木市立　認定こども園西幼稚園,イバラキシリツニンテイコドモエンニシヨウチエン,,大阪府茨木市上穂積2-12-13,,34.824955,135.560089,,,072-622-5115,,,,茨木市,,,,,,,,,,
270008,,大阪府,,茨木市立　認定こども園太田幼稚園,イバラキシリツニンテイコドモエンオオタヨウチエン,,大阪府茨木市東福井2-2-32,,34.844997,135.553802,,,072-643-5160,,,,茨木市,,,,,,,,,,
270008,,大阪府,,茨木市立　認定こども園水尾幼稚園,イバラキシリツニンテイコドモエンミズオヨウチエン,,大阪府茨木市真砂2-3-2,,34.80088,135.579178,,,072-635-0590,,,,茨木市,,,,,,,,,,
270008,,大阪府,,泉佐野市立さくらこども園,イズミサノシリツサクラコドモエン,,大阪府泉佐野市旭町4-6,,34.413288,135.322403,,,072-462-2913,,,,泉佐野市,,,,,,,,,,
270008,,大阪府,,泉佐野市立のぞみこども園,イズミサノシリツノゾミコドモエン,,大阪府泉佐野市上瓦屋583-1,,34.415199,135.337402,,,072-468-8005,,,,泉佐野市,,,,,,,,,,
270008,,大阪府,,泉佐野市立はるかこども園,イズミサノシリツハルカコドモ,,大阪府泉佐野市長滝1028,,34.380859,135.318649,,,072-468-8170,,,,泉佐野市,,,,,,,,,,
270008,,大阪府,,幼保連携型認定こども園泉ヶ丘保育園,ヨウホレンケイガタニンテイコドモエン　イズミガオカホイクエン,,大阪府泉佐野市鶴原935-3,,34.41906,135.347229,,,072-463-0041,,,,(福)泉ヶ丘福祉会,,,,,,,,,,
270008,,大阪府,,こども園つばさ,コドモエンツバサ,,大阪府泉佐野市笠松1-2-18,,34.410946,135.309464,,,072-463-3713,,,,(福)杉の子会,,,,,,,,,,
270008,,大阪府,,幼保連携型認定こども園すえひろこども園,ヨウホレンケイガタニンテイコドモエンスエヒロコドモエン,,大阪府泉佐野市東羽倉崎町9-14,,34.401428,135.303406,,,072-466-0300,,,,(福)幸楽会,,,,,,,,,,
270008,,大阪府,,認定こども園なかよし保育園,ニンテイコドモエン　ナカヨシホイクエン,,大阪府泉佐野市中庄831-5,,34.413738,135.329147,,,072-464-5010,,,,(福)日新親友会,,,,,,,,,,
270008,,大阪府,,認定こども園下瓦屋保育園,ニンテイコドモエン　シモカワラヤホイクエン,,大阪府泉佐野市上瓦屋610-1,,34.418598,135.340561,,,072-463-3359,,,,(福)常茂恵会,,,,,,,,,,
270008,,大阪府,,こども園杉の子,コドモエンスギノコ,,大阪府泉佐野市鶴原1757,,34.425835,135.338608,,,072-464-0379,,,,(福)杉の子会,,,,,,,,,,
270008,,大阪府,,認定こども園上之郷保育園,ニンテイコドモエン　カミノゴウホイクエン,,大阪府泉佐野市上之郷1651-1,,34.374931,135.327423,,,072-467-0793,,,,(福)光会,,,,,,,,,,
270008,,大阪府,,幼保連携型認定こども園こだまこども園,ヨウホレンケイガタニンテイコドモエンコダマコドモエン,,大阪府泉佐野市羽倉崎4-2-32,,34.403732,135.296402,,,072-464-2598,,,,(福)幸楽会,,,,,,,,,,
270008,,大阪府,,認定こども園　泉佐野ルーテル保育園,ニンテイコドモエン　イズミサノルーテルホイクエン,,大阪府泉佐野市湊3-13-11,,34.420071,135.321838,,,072-463-1436,,,,(福)泉佐野ルーテル福祉会,,,,,,,,,,
270008,,大阪府,,あおいこども園,アオイコドモエン,,大阪府泉佐野市長滝4067,,34.396221,135.317062,,,072-464-3466,,,,(福)あおい会,,,,,,,,,,
270008,,大阪府,,ひねのこども園,ヒネノコドモエン,,大阪府泉佐野市日根野7277,,34.388889,135.335052,,,072-468-0345,,,,(福)日根野福祉会,,,,,,,,,,
270008,,大阪府,,ひかりこども園,ヒカリコドモエン,,大阪府泉佐野市南中樫井1065,,34.38533,135.292282,,,072-465-1447,,,,(福)みやび,,,,,,,,,,
270008,,大阪府,,清和こども園,セイワコドモエン,,大阪府泉佐野市高松東1-10-16,,34.408001,135.317413,,,072-462-0972,,,,(福)清和会,,,,,,,,,,
270008,,大阪府,,認定こども園勝山愛和青葉台幼稚園,ニンテイコドモエン　カツヤマアイワアオバダイヨウチエン,,大阪府河内長野市南青葉台1-1,,34.418026,135.568802,,,0721-65-1378,,,,(学)大阪聖徳学園,,,,,,,,,,
270008,,大阪府,,認定こども園奈良佐保短期大学附属河内長野幼稚園,ニンテイコドモエン　ナラサホタンキダイガクフゾクカワチナガノヨウチエン,,大阪府河内長野市大矢船中町10-1,,34.420238,135.560577,,,0721-64-8740,,,,(学)佐保会学園,,,,,,,,,,
270008,,大阪府,,認定こども園長野台幼稚園,ニンテイコドモエン　ナガノダイヨウチエン,,大阪府河内長野市緑ｹ丘中町8-8,,34.447514,135.541916,,,0721-54-3211,,,,(学)安本学園,,,,,,,,,,
270008,,大阪府,,認定こども園えぴーく幼稚園,ニンテイコドモエン　エピークヨウチエン,,大阪府河内長野市美加の台2-28-1,,34.428059,135.58136,,,0721-63-2351,,,,(学)安本学園,,,,,,,,,,
270008,,大阪府,,認定こども園ひなぎく幼稚園,ニンテイコドモエン　ヒナギクヨウチエン,,大阪府河内長野市木戸1-5-8,,34.468884,135.566956,,,0721-52-3214,,,,(学)大西学園,,,,,,,,,,
270008,,大阪府,,認定こども園大阪千代田短期大学附属幼稚園,ニンテイコドモエンオオサカチヨダタンキダイガクフゾクヨウチエン,,大阪府河内長野市楠町西1090,,34.471203,135.560043,,,0721-53-5283,,,,(学)千代田学園,,,,,,,,,,
270008,,大阪府,,認定こども園おしお幼稚園,ニンテイコドモエンオシオヨウチエン,,大阪府河内長野市南花台1-27-1,,34.433739,135.559006,,,0721-64-1122,,,,(学)道輝学園,,,,,,,,,,
270008,,大阪府,,認定こども園くすのき幼稚園,ニンテイコドモエンクスノキヨウチエン,,大阪府河内長野市末広町623-23   ,,34.444729,135.57814,,,0721-65-1167,,,,(学)城地学園,,,,,,,,,,
270008,,大阪府,,認定こども園清教学園幼稚園,ニンテイコドモエンセイキョウガクエンヨウチエン,,大阪府河内長野市西代町9-11,,34.453934,135.567917,,,0721-53-3917,,,,(学)清教学園,,,,,,,,,,
270008,,大阪府,,認定こども園長野こども学園,ニンテイコドモエンナガノコドモガクエン,,大阪府河内長野市古野町2-14,,34.454647,135.570496,,,0721-52-5917,,,,(福)長野社会福祉事業財団,,,,,,,,,,
270008,,大阪府,,認定こども園天野山保育園,ニンテイコドモエンアマノサンホイクエン,,大阪府河内長野市天野町295-1,,34.437176,135.535416,,,0721-52-5819,,,,(福)天野山保育園,,,,,,,,,,
270008,,大阪府,,幼保連携型認定こども園宮前つばさ幼稚園,ヨウホレンケイガタニンテイコドモエン　ミヤマエツバサヨウチエン,,大阪府松原市上田6-10-24,,34.571529,135.560364,,,072-337-0283,,,,(福)博光福祉会,,,,,,,,,,
270008,,大阪府,,幼稚園型認定こども園　松原ひかり幼稚園,ヨウチエンガタニンテイコドモエンマツバラヒカリヨウチエン,,大阪府松原市阿保3-16-41,,34.579979,135.55455,,,072-332-1648,,,,(学)松原学園,,,,,,,,,,
270008,,大阪府,,認定こども園住道こども園,ニンテイコドモエン　スミノドウコドモエン,,大阪府大東市三住町11-21,,34.70908,135.624725,,,072-872-4218,,,,(福)住道学園,,,,,,,,,,
270008,,大阪府,,認定こども園大東わかば保育園,ニンテイコドモエン　ダイトウワカバホイクエン,,大阪府大東市北条1-21-36,,34.723106,135.641769,,,072-878-4121,,,,(福)弘法会,,,,,,,,,,
270008,,大阪府,,若竹こども園,ワカタケコドモエン,,大阪府大東市深野5-7-27,,34.713703,135.637482,,,072-874-2930,,,,(福)大東若竹会,,,,,,,,,,
270008,,大阪府,,認定こども園　秀英幼稚園,ニンテイコドモエン　シュウエイヨウチエン,,大阪府大東市深野3-1-12,,34.718384,135.635468,,,072ｰ874-4403,,,,(学)大東若竹学園,,,,,,,,,,
270008,,大阪府,,あすなろこども園,アスナロコドモエン,,大阪府大東市扇町9-8,,34.702522,135.622192,,,072-873-2241,,,,(福)愛育会,,,,,,,,,,
270008,,大阪府,,あすなろこども園分園,アスナロコドモエン　ブンエン,,大阪府大東市末広町11-6,,34.703876,135.621262,,,072-870-1515,,,,(福)愛育会,,,,,,,,,,
270008,,大阪府,,認定こども園　聖心保育園,ニンテイコドモエン　セイシンホイクエン,,大阪府大東市太子田2-14-15,,34.705601,135.608078,,,072-874-2371,,,,(福)聖心会,,,,,,,,,,
270008,,大阪府,,認定こども園　第２聖心保育園,ニンテイコドモエン　ダイニセイシンホイクエン,,大阪府大東市寺川1-20-1,,34.708885,135.64415,,,072-874-0981,,,,(福)聖心会,,,,,,,,,,
270008,,大阪府,,みのりこども園,ミノリコドモエン,,大阪府大東市津の辺町4-11,,34.725445,135.633713,,,072-879-2777,,,,(福)楠会,,,,,,,,,,
270008,,大阪府,,認定こども園　大東つくし保育園,ニンテイコドモエン　ダイトウツクシホイクエン,,大阪府大東市諸福6-3-33,,34.702637,135.59787,,,072-873-9817,,,,(福)つくし会,,,,,,,,,,
270008,,大阪府,,認定こども園　四条保育園,ニンテイコドモエン　シジョウホイクエン,,大阪府大東市北条1-8-48,,34.720009,135.640625,,,072-879-4158,,,,(福)葵福祉会,,,,,,,,,,
270008,,大阪府,,認定こども園　上三箇保育園,ニンテイコドモエン　カミサンガホイクエン,,大阪府大東市三箇1-13-13,,34.717571,135.6259,,,072-872-4296,,,,(福)寝屋川福祉会,,,,,,,,,,
270008,,大阪府,,認定こども園　ひとつぶ保育園,ニンテイコドモエン　ヒトツブホイクエン,,大阪府大東市深野4-3-4,,34.716434,135.634003,,,072-872-0603,,,,(福)一粒福祉会,,,,,,,,,,
270008,,大阪府,,幼稚園型認定こども園　愛真幼稚園,ヨウチエンガタニンテイコドモエン　アイシンヨウチエン,,大阪府大東市西楠の里町15-1,,34.72578,135.632339,,,072-877-0164,,,,(学)大東学園,,,,,,,,,,
270008,,大阪府,,認定こども園　朋来幼稚園,ニンテイコドモエン　ホウライヨウチエン,,大阪府大東市朋来2-14-5,,34.698086,135.613861,,,072-872-0337,,,,(学)同住学園,,,,,,,,,,
270008,,大阪府,,認定こども園  あいしゅう幼稚園,ニンテイコドモエンアイシュウヨウチエン,,大阪府和泉市王子町1118-59,,34.499756,135.447495,,,0725-41-1943,,,,(学)愛集学園,,,,,,,,,,
270008,,大阪府,,認定こども園  Ｋｉｄｓまゆみ,ニンテイコドモエンキッズマユミ,,大阪府和泉市黒鳥町1-5-3,,34.489265,135.435425,,,0725-45-8030,,,,(福)慈泉福祉会,,,,,,,,,,
270008,,大阪府,,認定こども園  上代幼稚園,ニンテイコドモエンウエダイヨウチエン,,大阪府和泉市上代町138-3,,34.510044,135.461395,,,0725-41-2153,,,,(学)福原学園,,,,,,,,,,
270008,,大阪府,,幼保連携型認定こども園　信太保育園,ヨウホレンケイガタニンテイコドモエンシノダホイクエン,,大阪府和泉市尾井町2-7-4,,34.50502,135.443832,,,0725-46-0471,,,,(福)泉州三和会,,,,,,,,,,
270008,,大阪府,,認定こども園　新光明池幼稚園,ニンテイコドモエンシンコウミョウイケヨウチエン,,大阪府和泉市伏屋町3-5-22,,34.476059,135.471191,,,0725-55-2199,,,,(学)共立学園,,,,,,,,,,
270008,,大阪府,,認定こども園　いぶきの Pre School,ニンテイコドモエンイブキノプリスクール,,大阪府和泉市いぶき野5-5-5,,34.460011,135.459229,,,0725-50-4000,,,,(福)和泉福祉会,,,,,,,,,,
270008,,大阪府,,認定こども園　横山きのみ保育園,ニンテイコドモエンヨコヤマキノミホイクエン,,大阪府和泉市仏並町358-11,,34.421833,135.486328,,,0725-90-2501,,,,(福)童夢創成館,,,,,,,,,,
270008,,大阪府,,幼保連携型認定こども園　池上わかばこども園,ヨウホレンケイガタニンテイコドモエンイケガミワカバコドモエン,,大阪府和泉市池上町3-14-55,,34.502613,135.429504,,,0725-41-1441,,,,(福)誠心福祉会,,,,,,,,,,
270008,,大阪府,,認定こども園　ひかり　Green Well,ニンテイコドモエンヒカリグリーンウェル,,大阪府和泉市光明台3-3-1,,34.454464,135.488922,,,0725-56-2002,,,,(福)和泉福祉会,,,,,,,,,,
270008,,大阪府,,幼保連携型認定こども園　すいせん保育園,ヨウホレンケイガタニンテイコドモエンスイセンホイクエン,,大阪府和泉市今福町2-1-1,,34.474049,135.426025,,,0725-44-0055,,,,(福)清真会,,,,,,,,,,
270008,,大阪府,,幼保連携型認定こども園　はつがの国際こども園,ヨウホレンケイガタニンテイコドモエンハツガノコクサイコドモエン,,大阪府和泉市はつが野5-12-1,,34.438103,135.463501,,,0725-90-6788,,,,(福)遺徳会,,,,,,,,,,
270008,,大阪府,,認定こども園　和泉チャイルド幼稚園,ニンテイコドモエンイズミチャイルドヨウチエン,,大阪府和泉市王寺町2-1-52,,34.499973,135.44458,,,0725-41-2996,,,,(学)浩陽学園,,,,,,,,,,
270008,,大阪府,,幼保連携型認定こども園　てらかど保育園,ヨウホレンケイガタニンテイコドモエンテラカドホイクエン,,大阪府和泉市寺門町2-7-5,,34.473717,135.434952,,,0725-41-3337,,,,(福)いずみひばり会,,,,,,,,,,
270008,,大阪府,,幼保連携型認定こども園　クレアール保育園,ヨウホレンケイガタニンテイコドモエンクレアールホイクエン,,大阪府和泉市いぶき野5-3-7,,34.458313,135.455078,,,0725-58-1555,,,,(福)いずみひばり会,,,,,,,,,,
270008,,大阪府,,認定こども園　さいわいこども園,ニンテイコドモエンサイワイコドモエン,,大阪府和泉市幸2-7-44,,34.500565,135.437149,,,0725-41-1385,,,,(福)和泉幸生会,,,,,,,,,,
270008,,大阪府,,幼保連携型認定こども園　たつのおか保育園,ヨウホレンケイガタニンテイコドモエンタツノオカホイクエン,,大阪府和泉市三林町1273-2,,34.452389,135.472687,,,0725-57-2227,,,,(福)いずみひばり会,,,,,,,,,,
270008,,大阪府,,認定こども園　光明台幼稚園,ニンテイコドモエンコウミョウダイヨウチエン,,大阪府和泉市光明台3-6-1,,34.453526,135.489365,,,0725-56-2661,,,,(学)ルンビニ学園,,,,,,,,,,
270008,,大阪府,,認定こども園　和泉中央みのり園,ニンテイコドモエンイズミチュウオウミノリエン,,大阪府和泉市池田下町150,,34.475899,135.455109,,,0725-56-2300,,,,(福)伸和会,,,,,,,,,,
270008,,大阪府,,みすず学園森町こども園,ミスズガクエンシンマチコドモエン,,大阪府箕面市森町中1-23-11,,34.886486,135.460159,,,072-743-9001,,,,(福)みすず学園福祉会,,,,,,,,,,
270008,,大阪府,,こども園　アサンプション国際幼稚園,コドモエンアサンプションコクサイヨウチエン,,大阪府箕面市如意谷1-10-11,,34.835705,135.479782,,,072-722-3933,,,,(学)聖母被昇天学院,,,,,,,,,,
270008,,大阪府,,認定こども園　牧落幼稚園,ニンテイコドモエンマキオチヨウチエン,,大阪府箕面市牧落2-12-41,,34.821861,135.468033,,,072-722-2855,,,,(学)牧落八幡学園,,,,,,,,,,
270008,,大阪府,,認定こども園　ひじりひがし幼稚園,ニンテイコドモエンヒジリヒガシヨウチエン,,大阪府箕面市粟生間谷西1-7-1,,34.842049,135.513321,,,072-729-1566,,,,(学)ひじり学園,,,,,,,,,,
270008,,大阪府,,幼稚園型認定こども園　箕面学園附属幼稚園,ヨウチエンガタニンテイコドモエンミノオガクエンフゾクヨウチエン,,大阪府箕面市箕面7-7-31,,34.83416,135.463684,,,072-723-6566,,,,(学)箕面学園,,,,,,,,,,
270008,,大阪府,,幼稚園型認定こども園　粟生幼稚園,ヨウチエンガタニンテイコドモエンアオヨウチエン,,大阪府箕面市粟生間谷東5-30-19,,34.848694,135.516022,,,072-729-4192,,,,(学)法泉寺学園,,,,,,,,,,
270008,,大阪府,,認定こども園　関西女子短期大学附属幼稚園,ニンテイコドモエンカンサイジョシタンキダイガクフゾクヨウチエン,,大阪府柏原市旭ヶ丘3-11-1,,34.559875,135.636398,,,072-977-0602,,,,(学)玉手山学園,,,,,,,,,,
270008,,大阪府,,羽曳野市立こども未来館たかわし,ハビキノシリツコドモミライカンタカワシ,,大阪府羽曳野市恵我之荘2-10-13,,34.575764,135.577362,,,072-955-0730,,,,羽曳野市,,,,,,,,,,
270008,,大阪府,,認定こども園高屋保育学園,ニンテイコドモエンタカヤホイクガクエン,,大阪府羽曳野市古市7-4-1,,34.546085,135.608627,,,072-957-1234,,,,(福)高屋福祉会,,,,,,,,,,
270008,,大阪府,,さかとがはらこども園,サカトガハラコドモエン,,大阪府羽曳野市東阪田264,,34.529858,135.611679,,,072-956-6246,,,,(福)坂門ヶ原福祉会,,,,,,,,,,
270008,,大阪府,,明の守ようきこども園,アキノモリヨウキコドモエン,,大阪府羽曳野市島泉9-18-20,,34.575016,135.582733,,,072-954-9630,,,,(福)陽気福祉会,,,,,,,,,,
270008,,大阪府,,幼保連携型認定こども園門真市立砂子みなみこども園,ヨウホレンケイガタニンテイコドモエンカドマシリツスナゴミナミコドモエン,,大阪府門真市千石西町10-8,,34.725075,135.606003,,,072-882-0668,,,,門真市,,,,,,,,,,
270008,,大阪府,,幼保連携型認定こども園おおわだ保育園,ヨウホレンケイガタニンテイコドモエンオオワダホイクエン,,大阪府門真市野里町41-39,,34.739098,135.604034,,,072-882-3255,,,,(福)友愛福祉会,,,,,,,,,,
270008,,大阪府,,認定こども園まことしょうじこども園,ニンテイコドモエンマコトショウジコドモエン,,大阪府門真市小路町7-34,,34.740097,135.580734,,,06-6908-5959,,,,(福)まこと鳴滝会,,,,,,,,,,
270008,,大阪府,,柳町園,ヤナギマチエン,,大阪府門真市柳町14-10,,34.736179,135.588211,,,06-6908-1010,,,,(福)小百合苑,,,,,,,,,,
270008,,大阪府,,古川園,フルカワエン,,大阪府門真市古川町7-3,,34.742031,135.597763,,,06-6908-4529,,,,(福)小百合苑,,,,,,,,,,
270008,,大阪府,,幼保連携型認定こども園三ツ島保育園,ヨウホレンケイガタニンテイコドモエンミツシマホイクエン,,大阪府門真市三ﾂ島6-25-1,,34.718445,135.606613,,,072-887-5575,,,,(福)向日葵福祉会,,,,,,,,,,
270008,,大阪府,,ファースト保育園,ファーストホイクエン,,大阪府門真市大池町22-24,,34.737968,135.602066,,,072-881-0653,,,,(福)向日葵福祉会,,,,,,,,,,
270008,,大阪府,,幼保連携型認定こども園たちばな幼稚園,ヨウホレンケイガタニンテイコドモエンタチバナヨウチエン,,大阪府門真市柳田町6-2,,34.732361,135.59259,,,06-6908-9250,,,,(学)邨橋学園,,,,,,,,,,
270008,,大阪府,,認定こども園ふじ幼稚園,ニンテイコドモエンフジヨウチエン,,大阪府門真市泉町3-20,,34.742851,135.58429,,,06-6901-0600,,,,(学)東口学園,,,,,,,,,,
270008,,大阪府,,幼保連携型認定こども園智鳥保育園,ヨウホレンケイガタニンテイコドモエンチドリホイクエン,,大阪府門真市北島町14-28,,34.723515,135.595291,,,072-881-3755,,,,(福)晋栄福祉会,,,,,,,,,,
270008,,大阪府,,幼保連携型認定こども園うちこしこども園,ヨウホレンケイガタニンテイコドモエンウチコシコドモエン,,大阪府門真市打越町25-1,,34.73325,135.59787,,,072-887-1588,,,,(社)雅福祉会,,,,,,,,,,
270008,,大阪府,,幼保連携型認定こども園きたじまこども園,ヨウホレンケイガタニンテイコドモエキタジマコドモエン,,大阪府門真市五月田町4-1,,34.729855,135.597076,,,072-882-6167,,,,(社)雅福祉会,,,,,,,,,,
270008,,大阪府,,幼保連携型認定こども園脇田こども学園,ヨウホレンケイガタニンテイコドモエンワキタコドモガクエン,,大阪府門真市脇田町2-8,,34.724888,135.614273,,,072-885-4310,,,,(社)門真福祉会,,,,,,,,,,
270008,,大阪府,,めぐみ白鳥こども園,メグミハクチョウコドモエン,,大阪府門真市四宮6-7-13,,34.730324,135.616913,,,072-882-0072,,,,(学)門真めぐみ学園,,,,,,,,,,
270008,,大阪府,,認定こども園　みなみせんりおか遊育園,ニンテイコドモエン　ミナミセンリオカユウイクエン,,大阪府摂津市南千里丘4-35,,34.784016,135.556137,,,06-6317-2466,,,,(福)桃林会,,,,,,,,,,
270008,,大阪府,,認定こども園　みなみせんりおか遊育園分園がくえんちょう遊育園,ニンテイコドモエン　ミナミセンリオカユウイクエンブンエンガクエンチョウユウイクエン,,大阪府摂津市学園町1-2-33,,34.784416,135.561127,,,072-665-9125,,,,(福)桃林会,,,,,,,,,,
270008,,大阪府,,認定こども園　正雀ひかり園,ニンテイコドモエン　ショウジャクヒカリエン,,大阪府摂津市正雀1-1-7,,34.778992,135.551865,,,06-6317-3008,,,,(学)成晃学院,,,,,,,,,,
270008,,大阪府,,認定こども園　せっつ遊育園,ニンテイコドモエン　セッツユウイクエン,,大阪府摂津市三島3-13-1,,34.780083,135.557007,,,06-6382-0307,,,,(福)桃林会,,,,,,,,,,
270008,,大阪府,,認定こども園　つるのひまわり園,ニンテイコドモエン　ツルノヒマワリエン,,大阪府摂津市鶴野2-7-16,,34.779629,135.564178,,,072-632-1115,,,,(福)鶴野会,,,,,,,,,,
270008,,大阪府,,認定こども園　正雀愛育園,ニンテイコドモエン　ショウジャクアイイクエン,,大阪府摂津市正雀4-12-23,,34.772518,135.555038,,,06-6382-2600,,,,(福)成光苑,,,,,,,,,,
270008,,大阪府,,認定こども園　一津屋愛育園,ニンテイコドモエン　ヒトツヤアイイクエン,,大阪府摂津市一津屋1-37-9,,34.760391,135.566345,,,06-6340-2107,,,,(福)成光苑,,,,,,,,,,
270008,,大阪府,,認定こども園　とりかい遊育園,ニンテイコドモエン　トリカイユウイクエン,,大阪府摂津市鳥飼中1-20-1,,34.780155,135.591797,,,072-654-5093,,,,(福)桃林会,,,,,,,,,,
270008,,大阪府,,認定こども園　とりかいひがし遊育園,ニンテイコドモエン　トリカイヒガシユウイクエン,,大阪府摂津市鳥飼上3-2-25,,34.786739,135.591736,,,072-654-8041,,,,(福)桃林会,,,,,,,,,,
270008,,大阪府,,認定こども園　鳥飼さつき園,ニンテイコドモエン　トリカイサツキエン,,大阪府摂津市鳥飼野々2-3-1,,34.774055,135.576828,,,072-654-1466,,,,(福)摂津会,,,,,,,,,,
270008,,大阪府,,認定こども園　摂津ひかり保育園,ニンテイコドモエン　セッツヒカリホイクエン,,大阪府摂津市鳥飼本町1-11-1,,34.778603,135.585739,,,072-650-0123,,,,(福)摂津会,,,,,,,,,,
270008,,大阪府,,認定こども園　KENTO ひまわり園,ニンテイコドモエン　ケントヒマワリエン,,大阪府摂津市千里丘7-3-7,,34.783211,135.543015,,,06-6192-9117,,,,(福)鶴野会,,,,,,,,,,
270008,,大阪府,,取石認定こども園,トリイシニンテイコドモエン,,大阪府高石市取石3-4-64,,34.518284,135.450272,,,072-272-8188,,,,(福)徳友会,,,,,,,,,,
270008,,大阪府,,認定こども園たかいし保育園,ニンテイコドモエンタカイシホイクエン,,大阪府高石市千代田4-2-15,,34.522518,135.427887,,,072-261-0944,,,,(福)浜寺会,,,,,,,,,,
270008,,大阪府,,認定こども園清高幼稚園,ニンテイコドモエンセイコウヨウチエン,,大阪府高石市西取石8-4-1,,34.516071,135.441116,,,072-261-1341,,,,(学)慈光学園,,,,,,,,,,
270008,,大阪府,,幼保連携型認定こども園東羽衣こども園,ヨウホレンケイガタニンテイコドモエンヒガシハゴロモコドモエン,,大阪府高石市東羽衣7-3-40,,34.527233,135.441422,,,072-264-7591,,,,(福)南海福祉事業会,,,,,,,,,,
270008,,大阪府,,取石南こども園,トリイシミナミコドモエン,,大阪府高石市取石4-12-16,,34.513351,135.447861,,,072-275-0888,,,,(福)徳友会,,,,,,,,,,
270008,,大阪府,,認定こども園浜寺幼稚園,ニンテイコドモエンハマデラヨウチエン,,大阪府高石市東羽衣1-1-8,,34.537468,135.444427,,,072-261-0097,,,,(学)浜寺幼稚園,,,,,,,,,,
270008,,大阪府,,幼保連携型認定こども園南海愛児園,ヨウホレンケイガタニンテイコドモエンナンカイアイジエン,,大阪府高石市千代田6-12-53,,34.518063,135.424042,,,072-261-8857,,,,(福)南海福祉事業会,,,,,,,,,,
270008,,大阪府,,認定こども園加茂保育園,ニンテイコドモエンカモホイクエン,,大阪府高石市西取石6-4-8,,34.519314,135.44545,,,072-242-7688,,,,(福)不易創造館,,,,,,,,,,
270008,,大阪府,,幼保連携型認定こども園羽衣保育園,ヨウホレンケイガタニンテイコドモエンハゴロモホイクエン,,大阪府高石市羽衣5-1-6,,34.531673,135.437393,,,072-264-3531,,,,(福)南海福祉事業会,,,,,,,,,,
270008,,大阪府,,認定こども園　ななこども園,ニンテイコドモエン　ナナコドモエン,,大阪府藤井寺市藤ヶ丘4-1-15,,34.563511,135.597137,,,072-953-4295,,,,(福)種の会,,,,,,,,,,
270008,,大阪府,,認定こども園　ひかりこども園,ニンテイコドモエン　ヒカリコドモエン,,大阪府藤井寺市大井5-5-12,,34.580894,135.61264,,,072-939-6081,,,,(福)南大阪福祉協会,,,,,,,,,,
270008,,大阪府,,認定こども園　藤井寺カトリック幼稚園,ニンテイコドモエン　フジイデラカトリックヨウチエン,,大阪府藤井寺市御舟町11-1,,34.574032,135.60022,,,072-938-8878,,,,(学)大阪聖マリア学園,,,,,,,,,,
270008,,大阪府,,泉南市立なるにっこ認定こども園,センナンシリツナルニッコニンテイコドモエン,,大阪府泉南市信達市場1946,,34.369785,135.275299,,,072-482-5660,,,,泉南市,,,,,,,,,,
270008,,大阪府,,認定こども園信達こども園,ニンテイコドモエン　シンダチコドモエン,,大阪府泉南市信達牧野425-1,,34.363823,135.280945,,,072-483-4642,,,,(福)恵由福祉会,,,,,,,,,,
270008,,大阪府,,認定こども園西信達くねあ,ニンテイコドモエン　ニシシンダチクネア,,大阪府泉南市岡田5-23-11,,34.385666,135.27684,,,072-483-2444 ,,,,(福)ルンビニ園,,,,,,,,,,
270008,,大阪府,,たるいこども園,タルイコドモエン,,大阪府泉南市樽井6-9-10,,34.371426,135.264328,,,072-482-0074,,,,(福)貝塚中央福祉会,,,,,,,,,,
270008,,大阪府,,認定こども園砂川幼稚園,ニンテイコドモエン　スナガワヨウチエン,,大阪府泉南市信達大苗代1138,,34.363121,135.293961,,,072-483-1221,,,,(学)いづみ学園,,,,,,,,,,
270008,,大阪府,,四條畷市立忍ヶ丘あおぞらこども園,シジョウナワテシリツシノブガオカアオゾラコドモエン,,大阪府四條畷市岡山3-2-11,,34.748245,135.646179,,,072-877-7583,,,,四條畷市,,,,,,,,,,
270008,,大阪府,,田原台ひまわりこども園,タワラダイヒマワリコドモエン,,大阪府四條畷市田原台7-1-7,,34.721939,135.692993,,,0743-78-0133,,,,(福)恵由福祉会,,,,,,,,,,
270008,,大阪府,,四條畷すみれ保育園,シジョウナワテスミレホイクエン,,大阪府四條畷市北出町11-7,,34.737095,135.628662,,,072-878-5961,,,,(福)北出福祉会,,,,,,,,,,
270008,,大阪府,,認定こども園　忍ヶ丘愛育園,ニンテイコドモエン　シノブガオカアイイクエン,,大阪府四條畷市大字岡山125-1,,34.744133,135.649368,,,072-877-0123,,,,(福)盛幸会,,,,,,,,,,
270008,,大阪府,,幼稚園型認定こども園　畷幼稚園,ヨウチエンガタニンテイコドモエン　ナワテヨウチエン,,大阪府四條畷市中野本町7-1,,34.739761,135.640976,,,072-877-0339,,,,(学)山本栄学園,,,,,,,,,,
270008,,大阪府,,認定こども園　忍ヶ丘いるかこども園,ニンテイコドモエン　シノブガオカイルカコドモエン,,大阪府四條畷市岡山東2-3-28,,34.745289,135.646942,,,072-862-1515,,,,(福)京慈会,,,,,,,,,,
270008,,大阪府,,なわてすみれ園,ナワテスミレエン,,大阪府四條畷市雁屋北町6-18,,34.735802,135.632339,,,072-380-0748,,,,(福)北出福祉会,,,,,,,,,,
270008,,大阪府,,わかばこども園,ワカバコドモエン,,大阪府交野市私部1-22-1,,34.787899,135.680695,,,072-891-1824,,,,(福)私部,,,,,,,,,,
270008,,大阪府,,こども園ふじが丘保育園,コドモエン　フジガオカホイクエン,,大阪府交野市藤が尾3-1-1,,34.769196,135.676025,,,072-892-3200,,,,(福)交野ひまわり園,,,,,,,,,,
270008,,大阪府,,倉治こども園,クラジコドモエン,,大阪府交野市倉治1-1-12,,34.79398,135.695038,,,072-891-1116,,,,(福)二葉会,,,,,,,,,,
270008,,大阪府,,認定こども園　私部保育園,ニンテイコドモエン　キサベホイクエン,,大阪府交野市私部1-51-1,,34.786907,135.685471,,,072-893-1900,,,,(福)昭陽福祉会,,,,,,,,,,
270008,,大阪府,,認定こども園　第２きんもくせい保育園,ニンテイコドモエン　ダイニキンモクセイホイクエン,,大阪府交野市郡津5-76-1,,34.797375,135.669479,,,072-892-6789,,,,(福)もくせい会,,,,,,,,,,
270008,,大阪府,,星田こども園,ホシダコドモエン,,大阪府交野市星田3-10-8,,34.764141,135.670914,,,072-891-1793,,,,(福)星田児童福祉会,,,,,,,,,,
270008,,大阪府,,交野市立第１認定こども園,カタノシリツダイイチニンテイコドモエン,,大阪府交野市私市1-29-1,,34.77364,135.68779,,,072-892-1351,,,,交野市,,,,,,,,,,
270008,,大阪府,,交野市立第２認定こども園,カタノシリツダイニニンテイコドモエン,,大阪府交野市星田5-2--12,,34.767998,135.666672,,,072-892-0206,,,,交野市,,,,,,,,,,
270008,,大阪府,,交野市立第３認定こども園,カタノシリツダイサンニンテイコドモエン,,大阪府交野市幾野3-18-1,,34.79583,135.680573,,,072-892-8433,,,,交野市,,,,,,,,,,
270008,,大阪府,,こども園 ふじがお幼稚園,コドモエン　フジガオヨウチエン,,大阪府交野市藤が尾3-1-2,,34.769196,135.676025,,,072-892-3201,,,,(学)東口学園,,,,,,,,,,
270008,,大阪府,,認定こども園　ひかりの子幼稚園,ニンテイコドモエン　ヒカリノコヨウチエン,,大阪府交野市東倉治4-2-13,,34.7981,135.697632,,,072-891-9000,,,,(学)ひかりの子学園,,,,,,,,,,
270008,,大阪府,,認定こども園　交野保育園,ニンテイコドモエン　カタノホイクエン,,大阪府交野市松塚11-10,,34.793137,135.669113,,,072-891-6203,,,,(福)明徳園,,,,,,,,,,
270008,,大阪府,,大阪狭山市立こども園,オオサカサヤマシリツコドモエン,,大阪府大阪狭山市西山台6-19-12,,34.48772,135.536469,,,072-366-0076,,,,大阪狭山市,,,,,,,,,,
270008,,大阪府,,大野台こども園,オオノダイコドモエン,,大阪府大阪狭山市大野台5-7-2,,34.481152,135.540161,,,072-366-8957,,,,(福)簡修会,,,,,,,,,,
270008,,大阪府,,つぼみこども園,ツボミコドモエン,,大阪府大阪狭山市東茱萸木3-2283-1,,34.487305,135.557999,,,072-367-3344,,,,(福)簡修会,,,,,,,,,,
270008,,大阪府,,山本こども園,ヤマモトコドモエン,,大阪府大阪狭山市山本中353-2,,34.509808,135.537186,,,072-360-7000,,,,(福)光久福祉会,,,,,,,,,,
270008,,大阪府,,大谷さやまこども園,オオタニサヤマコドモエン,,大阪府大阪狭山市今熊1-50,,34.496655,135.54451,,,072-349-6084,,,,(学)大谷学園,,,,,,,,,,
270008,,大阪府,,ワンワン認定こども園,ワンワンニンテイコドモエン,,大阪府阪南市鳥取中236-1,,34.351841,135.248688,,,072-472-4275,,,,(福)根来学園,,,,,,,,,,
270008,,大阪府,,しいの実こども園,シイノミコドモエン,,大阪府阪南市石田389,,34.349918,135.240952,,,072-473-0251,,,,(福)阪南福祉会,,,,,,,,,,
270008,,大阪府,,アルン西鳥取夢学舎,アルンニシトットリユメガクシャ,,大阪府阪南市鳥取70,,34.355717,135.234207,,,072-471-7111,,,,(福)夢らんど二田,,,,,,,,,,
270008,,大阪府,,桃の木の森こども園,モモノキノモリコドモエン,,大阪府阪南市桃の木台3-3,,34.329777,135.224533,,,072-476-0271,,,,(福)任天会,,,,,,,,,,
270008,,大阪府,,認定こども園豊能町立ふたば園,ニンテイコドモエントヨノチョウリツフタバエン,,大阪府豊能郡豊能町希望ヶ丘6-18-1,,34.916145,135.507858,,,072-739-1577,,,,豊能町,,,,,,,,,,
270008,,大阪府,,認定こども園みどり丘幼稚園,ニンテイコドモエンミドリオカヨウチエン,,大阪府豊能郡能勢町柏原62-2,,34.965675,135.420059,,,072-734-3200,,,,(学)西学園,,,,,,,,,,
270008,,大阪府,,チューリップ保育園,チューリップホイクエン,,大阪府泉北郡忠岡町忠岡南1-2-17,,34.488281,135.396408,,,0725-20-0331,,,,(福)レイクアルスター,,,,,,,,,,
270008,,大阪府,,ピープル忠岡チャイルドスクール,ピープルタダオカチャイルドスクール,,大阪府泉北郡忠岡町忠岡中2-16-25,,34.494087,135.393188,,,0725-20-0555,,,,(福)光生会,,,,,,,,,,
270008,,大阪府,,幼保連携型認定こども園さくらこども園,ヨウホレンケイガタニンテイコドモエン　サクラコドモエン,,大阪府泉南郡熊取町七山1-1403-1,,34.410671,135.358932,,,072-452-0345,,,,(福)阪南福祉事業会,,,,,,,,,,
270008,,大阪府,,幼保連携型認定こども園フレンド幼稚園,ヨウホレンケイガタニンテイコドモエン　フレンドヨウチエン,,大阪府泉南郡熊取町大久保東2-1-13,,34.400677,135.344818,,,072-453-1661,,,,(学)誠優学園,,,,,,,,,,
270008,,大阪府,,認定こども園教円幼稚園,ニンテイコドモエン　キョウエンヨウチエン,,大阪府泉南郡岬町多奈川谷川1905-24,,34.316269,135.127991,,,072-495-5109,,,,(学)教円学園,,,,,,,,,,
270008,,大阪府,,認定こども園やわらぎ幼稚園,ニンテイコドモエンヤワラギヨウチエン,,大阪府南河内郡太子町山田303-1,,34.516079,135.650879,,,0721-98-1402,,,,(学)森学園,,,,,,,,,,
270008,,大阪府,,石川こども園,イシカワコドモエン,,大阪府南河内郡河南町大字一須賀76-1,,34.508408,135.623154,,,0721-90-2068,,,,(福)千早赤坂福祉会,,,,,,,,,,
270008,,大阪府,,河南町立かなんこども園,カナンチョウリツカナンコドモエン,,大阪府南河内郡河南町大宝1-29-1,,34.502625,135.635086,,,0721-93-2402,,,,河南町,,,,,,,,,,
270008,,大阪府,,高倉幼稚園,タカクラヨウチエン,,大阪府大阪市都島区高倉町1-13-22,,34.714298,135.530807,,,06-6921-1780,,,,高倉幼稚園,,,,,,,,,,
270008,,大阪府,,育生幼稚園,イクセイヨウチエン,,大阪府大阪市都島区都島南通2-2-15,,34.701298,135.532593,,,06-6929-0606,,,,育生学園,,,,,,,,,,
270008,,大阪府,,都島中野幼稚園,ミヤコジマナカノヨウチエン,,大阪府大阪市都島区中野町4-20-45,,34.704876,135.523087,,,06-6351-4735,,,,さくら学園,,,,,,,,,,
270008,,大阪府,,下福島幼稚園,シモフクシマヨウチエン,,大阪府大阪市福島区玉川1-4-5,,34.688522,135.482758,,,06-6447-1120,,,,下福島学園,,,,,,,,,,
270008,,大阪府,,大開幼稚園,オオヒラキヨウチエン,,大阪府大阪市福島区大開1-18-15,,34.694263,135.470932,,,06-6461-2842,,,,おおひらき学園,,,,,,,,,,
270008,,大阪府,,福島幼稚園,フクシマヨウチエン,,大阪府大阪市福島区福島2-8-1,,34.694626,135.487213,,,06-6451-5907,,,,梅風学園,,,,,,,,,,
270008,,大阪府,,朝日橋幼稚園,アサヒバシヨウチエン,,大阪府大阪市此花区西九条5-4-40,,34.684406,135.463943,,,06-6461-0877,,,,朝日橋学園,,,,,,,,,,
270008,,大阪府,,春日出幼稚園,カスガデヨウチエン,,大阪府大阪市此花区春日出北2-8-24,,34.682163,135.449234,,,06-6461-0077,,,,春日出学園,,,,,,,,,,
270008,,大阪府,,川口聖マリア幼稚園,カワグチセイマリアヨウチエン,,大阪府大阪市西区川口3-5-31,,34.681473,135.478836,,,06-6581-6078,,,,川口聖マリア幼稚園,,,,,,,,,,
270008,,大阪府,,みなと幼稚園,ミナトヨウチエン,,大阪府大阪市港区市岡1-3-29,,34.663898,135.462906,,,06-6571-0395,,,,みなと幼稚園,,,,,,,,,,
270008,,大阪府,,文化幼稚園,ブンカヨウチエン,,大阪府大阪市港区市岡元町2-1-28,,34.668282,135.469055,,,06-6582-2221,,,,文化女子学院,,,,,,,,,,
270008,,大阪府,,昭光幼稚園,シヨウコウヨウチエン,,大阪府大阪市大正区南恩加島1-12-39,,34.634304,135.472595,,,06-6551-5619,,,,昭光学園,,,,,,,,,,
270008,,大阪府,,北恩加島幼稚園,キタオカジマヨウチエン,,大阪府大阪市大正区泉尾5-17-31,,34.654488,135.467621,,,06-6551-2856,,,,北恩加島学園,,,,,,,,,,
270008,,大阪府,,天王寺幼稚園,テンノウジヨウチエン,,大阪府大阪市天王寺区北河堀町1-13,,34.649883,135.518555,,,06-6771-0877,,,,吉見学園,,,,,,,,,,
270008,,大阪府,,大阪芸術大学附属松ヶ鼻幼稚園,オオサカゲイジユツダイガクフゾクマツガハナヨウチエン,,大阪府大阪市天王寺区松ヶ鼻町4-4,,34.66024,135.524506,,,06-6771-2348,,,,塚本学院,,,,,,,,,,
270008,,大阪府,,パドマ幼稚園,パドマヨウチエン,,大阪府大阪市天王寺区下寺町1-1-30,,34.666023,135.511398,,,06-6772-1721,,,,蓮光学園,,,,,,,,,,
270008,,大阪府,,日本橋幼稚園,ニホンバシヨウチエン,,大阪府大阪市浪速区難波中2-7-5,,34.661331,135.503952,,,06-6641-6401,,,,なんば学園,,,,,,,,,,
270008,,大阪府,,大阪東邦幼稚園,オオサカトウホウヨウチエン,,大阪府大阪市淀川区木川西2-1-19,,34.723061,135.490402,,,06-6301-4581,,,,東邦学園,,,,,,,,,,
270008,,大阪府,,塚本幼稚園幼児教育学園幼稚園,ツカモトヨウチエン,,大阪府大阪市淀川区塚本1-6-25,,34.712738,135.473297,,,06-6301-2166,,,,森友学園,,,,,,,,,,
270008,,大阪府,,ひかり幼稚園,ヒカリヨウチエン,,大阪府大阪市淀川区新北野3-10-4,,34.714531,135.474716,,,06-6301-6288,,,,見真学園,,,,,,,,,,
270008,,大阪府,,木川幼稚園,キガワヨウチエン,,大阪府大阪市淀川区木川西2-8-4,,34.723522,135.489807,,,06-6301-6090,,,,専宗学園,,,,,,,,,,
270008,,大阪府,,みつや・めぐみ幼稚園,ミツヤメグミヨウチエン,,大阪府大阪市淀川区三津屋南1-16-33,,34.726707,135.475327,,,06-6309-2581,,,,妙光学園,,,,,,,,,,
270008,,大阪府,,アケミ幼稚園,アケミヨウチエン,,大阪府大阪市淀川区野中南1-1-3,,34.725704,135.485672,,,06-6302-6878,,,,年木学園,,,,,,,,,,
270008,,大阪府,,大阪成蹊短期大学附属こみち幼稚園,オオサカセイケイタンキダイガクフゾクコミチヨウチエン,,大阪府大阪市東淀川区井高野4-8-8,,34.767548,135.549377,,,06-6829-2598,,,,大阪成蹊学園,,,,,,,,,,
270008,,大阪府,,淡路幼稚園,アワジヨウチエン,,大阪府大阪市東淀川区東淡路4-12-25,,34.737518,135.518127,,,06-6321-0271,,,,光宝寺学園,,,,,,,,,,
270008,,大阪府,,豊里幼稚園,トヨサトヨウチエン,,大阪府大阪市東淀川区豊里2-6-10,,34.738297,135.538925,,,06-6320-2030,,,,大橋学園,,,,,,,,,,
270008,,大阪府,,美鳩幼稚園,ミハトヨウチエン,,大阪府大阪市東淀川区瑞光1-11-10,,34.748943,135.533737,,,06-6328-6169,,,,阪口学園,,,,,,,,,,
270008,,大阪府,,瑞光幼稚園,ズイコウヨウチエン,,大阪府大阪市東淀川区瑞光4-6-7,,34.752605,135.547546,,,06-6329-6858,,,,山野学園,,,,,,,,,,
270008,,大阪府,,瑞光第二幼稚園,ズイコウダイニヨウチエン,,大阪府大阪市東淀川区北江口2-15-13,,34.759998,135.545532,,,06-6340-2585,,,,山野学園,,,,,,,,,,
270008,,大阪府,,聖美幼稚園,セイビヨウチエン,,大阪府大阪市東成区大今里南2-13-22,,34.665222,135.547211,,,06-6981-8438,,,,栗岡学園,,,,,,,,,,
270008,,大阪府,,熊野幼稚園,クマノヨウチエン,,大阪府大阪市東成区大今里4-16-23,,34.668655,135.549347,,,06-6971-0381,,,,白江学園,,,,,,,,,,
270008,,大阪府,,白菊幼稚園,シラギクヨウチエン,,大阪府大阪市生野区巽北2-5-24,,34.653511,135.54982,,,06-6752-4515,,,,西田学園,,,,,,,,,,
270008,,大阪府,,中川幼稚園,ナカガワヨウチエン,,大阪府大阪市生野区中川3-7-18,,34.658619,135.54567,,,06-6751-6660,,,,川久保学園,,,,,,,,,,
270008,,大阪府,,新森幼稚園,シンモリヨウチエン,,大阪府大阪市旭区新森3-3-35,,34.719639,135.552399,,,06-6954-5344,,,,大阪聖心学院,,,,,,,,,,
270008,,大阪府,,大宮幼稚園,オオミヤヨウチエン,,大阪府大阪市旭区中宮3-15-10,,34.726231,135.543991,,,06-6951-6041,,,,大宮学園,,,,,,,,,,
270008,,大阪府,,東高殿幼稚園,ヒガシタカドノヨウチエン,,大阪府大阪市旭区高殿6-6-17,,34.717072,135.545517,,,06-6951-7321,,,,東高殿幼稚園,,,,,,,,,,
270008,,大阪府,,赤川幼稚園,アカガワヨウチエン,,大阪府大阪市旭区赤川4-22-31,,34.728092,135.53035,,,06-6921-0004,,,,田土学園,,,,,,,,,,
270008,,大阪府,,西高殿若葉幼稚園,ニシタカドノワカバヨウチエン,,大阪府大阪市旭区高殿4-6-12,,34.714863,135.542007,,,06-6951-5205,,,,岡部学園,,,,,,,,,,
270008,,大阪府,,千寿幼稚園,センジユヨウチエン,,大阪府大阪市旭区清水3-3-16,,34.724117,135.556824,,,06-6951-1729,,,,林学園,,,,,,,,,,
270008,,大阪府,,大阪信愛学院幼稚園,オオサカシンアイガクインヨウチエン,,大阪府大阪市城東区古市2-7-30,,34.711761,135.559464,,,06-6939-4391,,,,大阪信愛女学院,,,,,,,,,,
270008,,大阪府,,野江幼稚園,ノエヨウチエン,,大阪府大阪市城東区成育3-4-20,,34.707859,135.541885,,,06-6933-0071,,,,黒崎学園,,,,,,,,,,
270008,,大阪府,,中浜幼稚園,ナカハマヨウチエン,,大阪府大阪市城東区中浜2-11-41,,34.684612,135.542969,,,06-6962-0995,,,,白江学園,,,,,,,,,,
270008,,大阪府,,蒲生幼稚園,ガモウヨウチエン,,大阪府大阪市城東区蒲生4-13-9,,34.698875,135.545441,,,06-6931-6695,,,,蒲生学園,,,,,,,,,,
270008,,大阪府,,三愛幼稚園,サンアイヨウチエン,,大阪府大阪市鶴見区今津中4-3-13,,34.691956,135.578079,,,06-6968-1981,,,,三愛学園,,,,,,,,,,
270008,,大阪府,,鶴見幼稚園,ツルミヨウチエン,,大阪府大阪市鶴見区鶴見4-9-17,,34.703529,135.561935,,,06-6931-3368,,,,大阪I見学院,,,,,,,,,,
270008,,大阪府,,鶴見菊水幼稚園,ツルミキクスイヨウチエン,,大阪府大阪市鶴見区鶴見2-5-15,,34.700069,135.562225,,,06-6912-0360,,,,I見学園,,,,,,,,,,
270008,,大阪府,,あべの翔学高等学校附属朝陽幼稚園,アベノショウガクコウトウガツコウフゾクチヨウヨウヨウチエン,,大阪府大阪市阿倍野区天王寺町南2-26-32,,34.641979,135.52504,,,06-6719-2710,,,,朝陽学院,,,,,,,,,,
270008,,大阪府,,赤橋幼稚園,アカハシヨウチエン,,大阪府大阪市阿倍野区相生通2-6-2,,34.63097,135.502853,,,06-6661-7418,,,,藤田学園,,,,,,,,,,
270008,,大阪府,,朝陽幼稚園,チヨウヨウヨウチエン,,大阪府大阪市阿倍野区橋本町6-16,,34.63274,135.503662,,,06-6661-2996,,,,朝陽学院,,,,,,,,,,
270008,,大阪府,,長池昭和幼稚園,ナガイケシヨウワヨウチエン,,大阪府大阪市阿倍野区桃ヶ池町1-11-29,,34.629807,135.518982,,,06-6621-0773,,,,臼井学園,,,,,,,,,,
270008,,大阪府,,阿部野学園幼稚園,アベノガクエンヨウチエン,,大阪府大阪市阿倍野区北畠3-7-5,,34.628082,135.500015,,,06-6651-8649,,,,阿部野学園,,,,,,,,,,
270008,,大阪府,,鶴ヶ丘幼稚園,ツルガオカヨウチエン,,大阪府大阪市阿倍野区西田辺町2-2-10,,34.618134,135.516251,,,06-6691-1067,,,,伏井学園,,,,,,,,,,
270008,,大阪府,,加賀幼稚園,カガヨウチエン,,大阪府大阪市住之江区中加賀屋4-4-81,,34.614029,135.477539,,,06-6681-2169,,,,住吉清水学園,,,,,,,,,,
270008,,大阪府,,中かがや幼稚園,ナカカガヤヨウチエン,,大阪府大阪市住之江区中加賀屋2-18-5,,34.617256,135.479172,,,06-6685-5525,,,,坂越学園,,,,,,,,,,
270008,,大阪府,,大和幼稚園,ヤマトヨウチエン,,大阪府大阪市住之江区北島3-3-11,,34.601307,135.478104,,,06-6681-1717,,,,杉田学園,,,,,,,,,,
270008,,大阪府,,帝塚山学院幼稚園,テヅカヤマガクインヨウチエン,,大阪府大阪市住吉区帝塚山中3-9-2,,34.619968,135.50029,,,06-6672-1151,,,,帝塚山学院,,,,,,,,,,
270008,,大阪府,,清水幼稚園,シミズヨウチエン,,大阪府大阪市住吉区清水丘1-24-10,,34.603287,135.491364,,,06-6673-4567,,,,住吉清水学園,,,,,,,,,,
270008,,大阪府,,あびこ幼稚園,アビコヨウチエン,,大阪府大阪市住吉区南住吉4-1-25,,34.603313,135.504364,,,06-6691-0029,,,,あびこ学園,,,,,,,,,,
270008,,大阪府,,遠里小野幼稚園,オリオノヨウチエン,,大阪府大阪市住吉区遠里小野1-2-25,,34.600697,135.499039,,,06-6691-3663,,,,住吉清水学園,,,,,,,,,,
270008,,大阪府,,ひまわり幼稚園,ヒマワリヨウチエン,,大阪府大阪市住吉区苅田5-17-25,,34.601368,135.514633,,,06-6697-4701,,,,西村学園,,,,,,,,,,
270008,,大阪府,,長居幼稚園,ナガイヨウチエン,,大阪府大阪市住吉区長居東3-8-32,,34.607792,135.517014,,,06-6691-0190,,,,長居幼稚園,,,,,,,,,,
270008,,大阪府,,よさみ幼稚園,ヨサミヨウチエン,,大阪府大阪市住吉区我孫子2-10-5,,34.603474,135.508774,,,06-6691-3601,,,,廣瀬学園,,,,,,,,,,
270008,,大阪府,,城南学園幼稚園,ジヨウナンガクエンヨウチエン,,大阪府大阪市東住吉区湯里6-4-26,,34.610542,135.538681,,,06-6702-5200,,,,城南学園,,,,,,,,,,
270008,,大阪府,,大阪芸術大学附属照ヶ丘幼稚園,オオサカゲイジユツダイガクフゾク　テルガオカヨウチエン,,大阪府大阪市東住吉区矢田2-18-16,,34.608398,135.532944,,,06-6697-1437,,,,塚本学院,,,,,,,,,,
270008,,大阪府,,中野幼稚園,ナカノヨウチエン,,大阪府大阪市東住吉区湯里1-13-6,,34.616283,135.53479,,,06-6702-0032,,,,大阪慈光学園,,,,,,,,,,
270008,,大阪府,,二葉幼稚園,フタバヨウチエン,,大阪府大阪市東住吉区北田辺6-14-26,,34.62957,135.526443,,,06-6622-1571,,,,二葉学園,,,,,,,,,,
270008,,大阪府,,喜連東幼稚園,キレヒガシヨウチエン,,大阪府大阪市平野区喜連東5-1-63,,34.611099,135.562103,,,06-6709-1587,,,,喜連学園,,,,,,,,,,
270008,,大阪府,,太成学院天満幼稚園,タイセイガクインテンマヨウチエン,,大阪府大阪市北区与力町4-16,,34.701542,135.513535,,,06-6353-9580,,,,天満学園,,,,,,,,,,
270008,,大阪府,,大淀幼稚園,オオヨドヨウチエン,,大阪府大阪市北区長柄西2-5-22,,34.716553,135.513168,,,06-6354-1972,,,,わかば学園,,,,,,,,,,
270008,,大阪府,,中津相愛幼稚園,ナカツソウアイヨウチエン,,大阪府大阪市北区中津3-6-15,,34.710964,135.494293,,,06-6371-0412,,,,永照寺学園,,,,,,,,,,
270008,,大阪府,,城星学園幼稚園,ジヨウセイガクエンヨウチエン,,大阪府大阪市中央区玉造2-23-26,,34.677853,135.528259,,,06-6941-5977,,,,城星学園,,,,,,,,,,
270008,,大阪府,,中央なにわ幼稚園,チユウオウナニワヨウチエン,,大阪府大阪市中央区粉川町7-6,,34.678158,135.512665,,,06-6761-3377,,,,中央なにわ幼稚園,,,,,,,,,,
270008,,大阪府,,梅花幼稚園,バイカヨウチエン,,大阪府豊中市上野西1-5-30,,34.791252,135.4711,,,06-6854-1320,,,,梅花学園,,,,,,,,,,
270008,,大阪府,,みくま幼稚園,ミクマヨウチエン,,大阪府豊中市新千里西町2-23-2,,34.811344,135.488495,,,06-6872-0210,,,,博陵学園,,,,,,,,,,
270008,,大阪府,,大阪音楽大学付属音楽幼稚園,オオサカオンガクダイガクフゾクオンガクヨウチエン,,大阪府豊中市豊南町東1-5-1,,34.75161,135.484085,,,06-6334-7349,,,,大阪音楽大学,,,,,,,,,,
270008,,大阪府,,アソカ幼稚園,アソカヨウチエン,,大阪府豊中市新千里東町3-5-1,,34.813164,135.502914,,,06-6872-0856,,,,アソカ学園,,,,,,,,,,
270008,,大阪府,,小曽根幼稚園,オゾネヨウチエン,,大阪府豊中市小曽根1-2-3,,34.763657,135.484436,,,06-6331-1646,,,,小曽根学院,,,,,,,,,,
270008,,大阪府,,ラ・サンテ幼稚園,ラサンテヨウチエン,,大阪府豊中市小曽根3-15-1,,34.758766,135.48764,,,06-6334-2002,,,,小曽根学院,,,,,,,,,,
270008,,大阪府,,箕面自由学園幼稚園,ミノオジユウガクエンヨウチエン,,大阪府豊中市宮山町4-21-1,,34.812889,135.462418,,,06-6852-8110,,,,箕面自由学園,,,,,,,,,,
270008,,大阪府,,緑ヶ丘幼稚園,ミドリガオカヨウチエン,,大阪府豊中市少路2-3-2,,34.806862,135.47493,,,06-6849-3133,,,,報恩寺学園,,,,,,,,,,
270008,,大阪府,,庄本幼稚園,シヨウモトヨウチエン,,大阪府豊中市庄本町1-2-4,,34.743435,135.46051,,,06-6332-3110,,,,椋橋学園,,,,,,,,,,
270008,,大阪府,,服部幼稚園,ハツトリヨウチエン,,大阪府豊中市服部本町1-7-19,,34.764095,135.476974,,,06-6862-3222,,,,服部天神宮学園,,,,,,,,,,
270008,,大阪府,,宮山幼稚園,ミヤヤマヨウチエン,,大阪府豊中市本町7-3-7,,34.790749,135.465393,,,06-6858-0670,,,,豊中稲荷学園,,,,,,,,,,
270008,,大阪府,,豊中文化幼稚園,トヨナカブンカヨウチエン,,大阪府豊中市上野西2-1-18,,34.793121,135.470551,,,06-6852-5050,,,,豊中松田学園,,,,,,,,,,
270008,,大阪府,,こうづしま幼稚園,コウヅシマヨウチエン,,大阪府豊中市上津島3-3-18,,34.759216,135.459534,,,06-6863-0552,,,,上津島学園,,,,,,,,,,
270008,,大阪府,,室町幼稚園,ムロマチヨウチエン,,大阪府池田市室町7-4,,34.822914,135.422821,,,072-751-4029,,,,室町学園,,,,,,,,,,
270008,,大阪府,,カトリック聖マリア幼稚園,カトリツクセイマリアヨウチエン,,大阪府池田市満寿美町9-26,,34.817265,135.425766,,,072-751-4428,,,,カトリック聖マリア学園,,,,,,,,,,
270008,,大阪府,,友星幼稚園,ユウセイヨウチエン,,大阪府池田市伏尾台2-11,,34.864491,135.438538,,,072-751-1828,,,,山脇学園,,,,,,,,,,
270008,,大阪府,,箕面桜ヶ丘幼稚園,ミノオサクラガオカヨウチエン,,大阪府箕面市桜ヶ丘2-8-16,,34.823463,135.459839,,,072-723-2500,,,,小倉　常稔,,,,,,,,,,
270008,,大阪府,,若葉幼稚園,ワカバヨウチエン,,大阪府箕面市桜井2-7-2,,34.817173,135.461517,,,072-721-2431,,,,箕面若葉学園,,,,,,,,,,
270008,,大阪府,,関西大学幼稚園,カンサイダイガクヨウチエン,,大阪府吹田市山手町3-5-34,,34.769867,135.507599,,,06-6387-3752,,,,関西大学,,,,,,,,,,
270008,,大阪府,,まこと幼稚園,マコトヨウチエン,,大阪府吹田市豊津町38-1,,34.760899,135.489639,,,06-6385-2376,,,,稲荷学園,,,,,,,,,,
270008,,大阪府,,玉川学園幼稚園,タマガワガクエンヨウチエン,,大阪府吹田市高野台4-2-1,,34.793526,135.521072,,,06-6871-3307,,,,大阪学院,,,,,,,,,,
270008,,大阪府,,西吹田幼稚園,ニシスイタヨウチエン,,大阪府吹田市泉町4-41-10,,34.760178,135.508591,,,06-6384-4748,,,,徳永学院,,,,,,,,,,
270008,,大阪府,,千里丘学園幼稚園,センリオカガクエンヨウチエン,,大阪府吹田市新芦屋下14-1,,34.799606,135.55365,,,06-6877-4500,,,,千里丘学園,,,,,,,,,,
270008,,大阪府,,ふじしろ幼稚園,フジシロヨウチエン,,大阪府吹田市藤白台4-9-1,,34.822304,135.513245,,,06-6872-3248,,,,真和学園,,,,,,,,,,
270008,,大阪府,,青山幼稚園,アオヤマヨウチエン,,大阪府吹田市青山台4-5,,34.82473,135.50354,,,06-6872-0253,,,,大阪青山学園,,,,,,,,,,
270008,,大阪府,,千里幼稚園,センリヨウチエン,,大阪府吹田市津雲台4-6-1,,34.801235,135.508743,,,06-6871-0664,,,,若竹学園,,,,,,,,,,
270008,,大阪府,,カトリックさゆり幼稚園,カトリツクサユリヨウチエン,,大阪府吹田市古江台1-17-1,,34.811085,135.510788,,,06-6872-3230,,,,サント・アンゼロ学院,,,,,,,,,,
270008,,大阪府,,千里敬愛幼稚園,センリケイアイヨウチエン,,大阪府吹田市桃山台2-1-1,,34.790874,135.502502,,,06-6871-0021,,,,敬愛学園,,,,,,,,,,
270008,,大阪府,,山手幼稚園,ヤマテヨウチエン,,大阪府吹田市山手町1-15,,34.767559,135.513779,,,06-6387-3001,,,,岡辻学園,,,,,,,,,,
270008,,大阪府,,千里山ナオミ幼稚園,センリヤマナオミヨウチエン,,大阪府吹田市千里山西5-26-1,,34.780521,135.50528,,,06-6384-1024,,,,河邊学園,,,,,,,,,,
270008,,大阪府,,山田敬愛幼稚園,ヤマダケイアイヨウチエン,,大阪府吹田市山田西2-5-3,,34.795044,135.528122,,,06-6875-1655,,,,敬愛学園,,,,,,,,,,
270008,,大阪府,,藤ヶ丘幼稚園,フジガオカヨウチエン,,大阪府吹田市藤が丘町9-23,,34.769646,135.523788,,,06-6385-4844,,,,大阪城北学園,,,,,,,,,,
270008,,大阪府,,岸部敬愛幼稚園,キシベケイアイヨウチエン,,大阪府吹田市岸部北1-15-8,,34.780811,135.528488,,,06-6387-9836,,,,敬愛学園,,,,,,,,,,
270008,,大阪府,,白ばら幼稚園,シロバラヨウチエン,,大阪府高槻市土橋町1-33,,34.841034,135.619522,,,072-674-0423,,,,森田学園,,,,,,,,,,
270008,,大阪府,,高槻わかば幼稚園,タカツキワカバヨウチエン,,大阪府高槻市柳川町1-7-14,,34.825157,135.592484,,,072-696-3261,,,,わかば学園,,,,,,,,,,
270008,,大阪府,,青い鳥幼稚園,アオイトリヨウチエン,,大阪府高槻市天神町2-8-18,,34.857006,135.616486,,,072-685-0868,,,,高槻田中学園,,,,,,,,,,
270008,,大阪府,,のびてゆく幼稚園,ノビテユクヨウチエン,,大阪府高槻市黄金の里1-3-1,,34.873234,135.595154,,,072-687-8815,,,,公文学園,,,,,,,,,,
270008,,大阪府,,桜ヶ丘幼稚園,サクラガオカヨウチエン,,大阪府高槻市桜ヶ丘北町11-17,,34.838074,135.596664,,,072-696-0123,,,,村田学園,,,,,,,,,,
270008,,大阪府,,高槻マリア・インマクラダ幼稚園,タカツキマリアインマクラダヨウチエン,,大阪府高槻市野見町2-15,,34.846226,135.620941,,,072-675-1278,,,,マリア学院,,,,,,,,,,
270008,,大阪府,,大阪体育大学浪商幼稚園,オオサカタイイクダイガクナミショウヨウチエン,,大阪府茨木市学園町1-1,,34.816753,135.589386,,,072-634-3141,,,,浪商学園,,,,,,,,,,
270008,,大阪府,,茨木東邦幼稚園,イバラキトウホウヨウチエン,,大阪府茨木市橋の内2-10-2,,34.823833,135.584503,,,072-634-0731,,,,東邦学園,,,,,,,,,,
270008,,大阪府,,鮎川幼稚園,アユカワヨウチエン,,大阪府茨木市鮎川3-3-24,,34.819836,135.594543,,,072-634-5452,,,,鮎川学園,,,,,,,,,,
270008,,大阪府,,春日幼稚園,カスガヨウチエン,,大阪府茨木市下穂積3-7-29,,34.814766,135.553726,,,072-622-4601,,,,穂積学園,,,,,,,,,,
270008,,大阪府,,郡山敬愛幼稚園,コオリヤマケイアイヨウチエン,,大阪府茨木市新郡山2-30-5,,34.831577,135.543747,,,072-641-1100,,,,清和学園,,,,,,,,,,
270008,,大阪府,,茨木みのり幼稚園,イバラキミノリヨウチエン,,大阪府茨木市水尾3-1-41,,34.803585,135.57225,,,072-632-2771,,,,茨木学園,,,,,,,,,,
270008,,大阪府,,安威幼稚園,アイヨウチエン,,大阪府茨木市南安威2-3-23,,34.842968,135.562515,,,072-643-4642,,,,清水学園,,,,,,,,,,
270008,,大阪府,,サニー幼稚園,サニ−ヨウチエン,,大阪府茨木市山手台3-31-19,,34.86261,135.551559,,,072-649-5152,,,,茨木若竹学園,,,,,,,,,,
270008,,大阪府,,りんでん幼稚園,リンデンヨウチエン,,大阪府茨木市白川1-11-1,,34.817101,135.598709,,,072-633-1212,,,,りんでん学園,,,,,,,,,,
270008,,大阪府,,学校法人天王学園幼稚園,ガッコウホウジンテンノウガクエンヨウチエン,,大阪府茨木市大正町3-15,,34.79438,135.560944,,,072-635-4000,,,,天王学園,,,,,,,,,,
270008,,大阪府,,彩都敬愛幼稚園,サイトケイアイヨウチエン,,大阪府茨木市彩都あさぎ5-7-4,,34.852554,135.529144,,,072-640-1212,,,,清和学園,,,,,,,,,,
270008,,大阪府,,かおり幼稚園,カオリヨウチエン,,大阪府摂津市正雀1-4-1,,34.777843,135.549927,,,06-6381-5995,,,,薫英学園,,,,,,,,,,
270008,,大阪府,,三島幼稚園,ミシマヨウチエン,,大阪府摂津市千里丘東2-2-6,,34.788811,135.553879,,,072-623-0237,,,,三島学園,,,,,,,,,,
270008,,大阪府,,摂津ひかり幼稚園,セツツヒカリヨウチエン,,大阪府摂津市鳥飼八防2-6-11,,34.770256,135.573883,,,072-654-1711,,,,成晃学院,,,,,,,,,,
270008,,大阪府,,山崎幼稚園,ヤマザキヨウチエン,,大阪府三島郡島本町山崎5-3-1,,34.893703,135.677246,,,075-961-3341,,,,山崎学園,,,,,,,,,,
270008,,大阪府,,早苗幼稚園,サナエヨウチエン,,大阪府守口市早苗町6-9,,34.732838,135.562027,,,06-6991-2595,,,,吉川学園,,,,,,,,,,
270008,,大阪府,,守口幼稚園,モリグチヨウチエン,,大阪府守口市緑町8-6,,34.734253,135.555771,,,06-6992-0109,,,,大阪集成学園,,,,,,,,,,
270008,,大阪府,,明善幼稚園,ミヨウゼンヨウチエン,,大阪府枚方市藤阪元町2-8-3,,34.818439,135.7005,,,072-851-2551,,,,明善学園,,,,,,,,,,
270008,,大阪府,,敬応学園幼稚園,ケイオウガクエンヨウチエン,,大阪府枚方市田口2-16-5,,34.828068,135.679352,,,072-847-9291,,,,敬応学園,,,,,,,,,,
270008,,大阪府,,春日東野幼稚園,カスガヒガシノヨウチエン,,大阪府枚方市春日北町4-20-1,,34.803772,135.688492,,,072-858-2006,,,,谷野学園,,,,,,,,,,
270008,,大阪府,,東香里丘幼稚園,ヒガシコウリガオカヨウチエン,,大阪府枚方市釈尊寺町25-27,,34.791718,135.665451,,,072-853-5665,,,,寺西学園,,,,,,,,,,
270008,,大阪府,,くずは青葉幼稚園,クズハアオバヨウチエン,,大阪府枚方市北楠葉町38-1,,34.87064,135.685349,,,072-857-8221,,,,山口学園,,,,,,,,,,
270008,,大阪府,,長尾幼稚園,ナガオヨウチエン,,大阪府枚方市長尾東町1-48-23,,34.822567,135.720886,,,072-858-5882,,,,長尾学園,,,,,,,,,,
270008,,大阪府,,楠京阪幼稚園,クスノキケイハンヨウチエン,,大阪府枚方市宮ﾉ阪4-50-1,,34.809784,135.659088,,,072-847-1350,,,,城地学園,,,,,,,,,,
270008,,大阪府,,浄幼稚園,キヨシヨウチエン,,大阪府枚方市中宮東之町4-22,,34.819424,135.664902,,,072-840-1814,,,,光寿学園,,,,,,,,,,
270008,,大阪府,,牧野幼稚園,マキノヨウチエン,,大阪府枚方市牧野阪2-19-21,,34.841595,135.665787,,,072-857-7227,,,,牧野学園,,,,,,,,,,
270008,,大阪府,,寝屋川幼稚園,ネヤガワヨウチエン,,大阪府寝屋川市大利町32-33,,34.767151,135.61615,,,072-829-4152,,,,池峯学園,,,,,,,,,,
270008,,大阪府,,恵愛幼稚園,ケイアイヨウチエン,,大阪府寝屋川市田井町24-5,,34.77763,135.628708,,,072-831-1308,,,,桜井学園,,,,,,,,,,
270008,,大阪府,,太秦幼稚園,ウズマサヨウチエン,,大阪府寝屋川市高宮あさひ丘2-2,,34.759384,135.636841,,,072-822-2280,,,,京新学園,,,,,,,,,,
270008,,大阪府,,三井中央幼稚園,ミイチユウオウヨウチエン,,大阪府寝屋川市三井ヶ丘2-5-3,,34.770824,135.644211,,,072-823-6300,,,,京新学園,,,,,,,,,,
270008,,大阪府,,成田幼稚園,ナリタヨウチエン,,大阪府寝屋川市成田町10-8,,34.779499,135.640594,,,072-833-2028,,,,成田山学園,,,,,,,,,,
270008,,大阪府,,四條畷学園大学附属幼稚園,シジヨウナワテガクエンダイガクフゾクヨウチエン,,大阪府大東市学園町6-45,,34.730564,135.6409,,,072-876-1321,,,,四條畷学園,,,,,,,,,,
270008,,大阪府,,大東中央幼稚園,ダイトウチユウオウヨウチエン,,大阪府大東市赤井1-2-1,,34.709583,135.619827,,,072-872-8071,,,,大東中央学園,,,,,,,,,,
270008,,大阪府,,大阪ひがし幼稚園,オオサカヒガシヨウチエン,,大阪府門真市三ﾂ島3-12-28,,34.714046,135.59491,,,072-881-5656,,,,大阪東学園,,,,,,,,,,
270008,,大阪府,,さくら幼稚園,サクラヨウチエン,,大阪府門真市千石東町10-10,,34.724262,135.610764,,,072-884-3688,,,,江畑学園,,,,,,,,,,
270008,,大阪府,,門真めぐみ幼稚園,カドマメグミヨウチエン,,大阪府門真市四宮3-10-24,,34.735035,135.615173,,,072-882-0071,,,,門真めぐみ学園,,,,,,,,,,
270008,,大阪府,,すずらん幼稚園,スズランヨウチエン,,大阪府門真市上島町17-32,,34.742981,135.609421,,,072-884-3456,,,,江畑学園,,,,,,,,,,
270008,,大阪府,,大阪愛徳幼稚園,オオサカアイトクヨウチエン,,大阪府門真市元町5-27,,34.739033,135.581268,,,06-6908-2266,,,,大阪愛徳学園,,,,,,,,,,
270008,,大阪府,,忍が丘幼稚園,シノブガオカヨウチエン,,大阪府四條畷市清滝526,,34.738827,135.647949,,,072-878-0408,,,,大柴学園,,,,,,,,,,
270008,,大阪府,,交野幼稚園,カタノヨウチエン,,大阪府交野市郡津5-2-5,,34.793549,135.670959,,,072-891-2333,,,,寺西学園,,,,,,,,,,
270008,,大阪府,,ほしだ幼稚園,ホシダヨウチエン,,大阪府交野市妙見坂7-2-2,,34.762783,135.678055,,,072-891-3856,,,,冨田学園,,,,,,,,,,
270008,,大阪府,,高岡幼稚園,タカオカヨウチエン,,大阪府交野市星田7-26-10,,34.763313,135.664902,,,072-892-2320,,,,高岡学園,,,,,,,,,,
270008,,大阪府,,開智幼稚園,カイチヨウチエン,,大阪府交野市森北1-9-1,,34.77813,135.683014,,,072-892-3488,,,,だいもん学園,,,,,,,,,,
270008,,大阪府,,徳庵愛和幼稚園,トクアンアイワヨウチエン,,大阪府東大阪市稲田上町1-9-20,,34.692104,135.583008,,,06-6745-7806,,,,徳庵学園,,,,,,,,,,
270008,,大阪府,,大阪樟蔭女子大学附属幼稚園,オオサカシヨウインジヨシダイガクフゾクヨウチエン,,大阪府東大阪市菱屋西3-3-7,,34.663239,135.579254,,,06-6723-8189,,,,樟蔭学園,,,,,,,,,,
270008,,大阪府,,西堤幼稚園,ニシヅツミヨウチエン,,大阪府東大阪市西堤本通西3-8-16,,34.677353,135.578018,,,06-6781-7820,,,,西堤学園,,,,,,,,,,
270008,,大阪府,,東大阪大学附属幼稚園,ヒガシオオサカダイガクフゾクヨウチエン,,大阪府東大阪市西堤学園町3-1-1,,34.674828,135.580933,,,06-6788-8100,,,,村上学園,,,,,,,,,,
270008,,大阪府,,進修第二幼稚園,シンシユウダイニヨウチエン,,大阪府東大阪市荒川1-7-12,,34.661892,135.568024,,,06-6721-8224,,,,進修学園,,,,,,,,,,
270008,,大阪府,,大阪商業大学附属幼稚園,オオサカシヨウギヨウダイガクフゾクヨウチエン,,大阪府東大阪市御厨南1-2-39,,34.66539,135.587189,,,06-6782-1600,,,,谷岡学園,,,,,,,,,,
270008,,大阪府,,四葉幼稚園,ヨツバヨウチエン,,大阪府東大阪市桜町2-17,,34.66647,135.633194,,,072-982-4875,,,,四葉学園,,,,,,,,,,
270008,,大阪府,,森河内幼稚園,モリガワチヨウチエン,,大阪府東大阪市森河内東1-28-20,,34.682228,135.567856,,,06-6783-6345,,,,龍華学園,,,,,,,,,,
270008,,大阪府,,白鳩幼稚園,シロハトヨウチエン,,大阪府八尾市末広町2-8-23,,34.633106,135.592697,,,072-923-0555,,,,久宝文化学院,,,,,,,,,,
270008,,大阪府,,美和幼稚園,ミワヨウチエン,,大阪府松原市東新町1-17-66,,34.58268,135.540268,,,072-333-1775,,,,天美学園,,,,,,,,,,
270008,,大阪府,,木の実幼稚園,コノミヨウチエン,,大阪府松原市天美北3-10-18,,34.5947,135.540314,,,072-337-1580,,,,今川学園,,,,,,,,,,
270008,,大阪府,,星の光幼稚園,ホシノヒカリヨウチエン,,大阪府松原市一津屋6-12-5,,34.583492,135.573593,,,072-336-9981,,,,大阪聖心学院,,,,,,,,,,
270008,,大阪府,,第二白鳩幼稚園,ダイニシロハトヨウチエン,,大阪府柏原市大県1-9-14,,34.586586,135.626541,,,072-971-0555,,,,久宝文化学院,,,,,,,,,,
270008,,大阪府,,ピーエル学園幼稚園,ピ−エルガクエンヨウチエン,,大阪府富田林市大字喜志2055,,34.522827,135.600693,,,0721-24-5135,,,,ピーエル学園,,,,,,,,,,
270008,,大阪府,,大阪芸術大学附属金剛幼稚園,オオサカゲイジユツダイガクフゾクコンゴウヨウチエン,,大阪府富田林市久野喜台2-6-1,,34.497356,135.563416,,,0721-29-1402,,,,塚本学院,,,,,,,,,,
270008,,大阪府,,しろがね幼稚園,シロガネヨウチエン,,大阪府富田林市錦織東1-18-13,,34.487934,135.590378,,,0721-25-7600,,,,富田林学園,,,,,,,,,,
270008,,大阪府,,東金剛幼稚園,ヒガシコンゴウヨウチエン,,大阪府富田林市向陽台2-24-4,,34.506199,135.580658,,,0721-28-0330,,,,竹田学園,,,,,,,,,,
270008,,大阪府,,平成幼稚園,ヘイセイヨウチエン,,大阪府富田林市小金台1-14-26,,34.497749,135.583023,,,0721-28-2220,,,,大橋学園,,,,,,,,,,
270008,,大阪府,,錦渓幼稚園,キンケイヨウチエン,,大阪府河内長野市古野町12-1,,34.454941,135.574036,,,0721-53-3170,,,,極楽寺学園,,,,,,,,,,
270008,,大阪府,,白鳩羽曳野幼稚園,シロハトハビキノヨウチエン,,大阪府羽曳野市羽曳ヶ丘3-5-14,,34.454941,135.574036,,,072-957-0555,,,,久宝文化学院,,,,,,,,,,
270008,,大阪府,,金岡二葉幼稚園,カナオカフタバヨウチエン,,大阪府堺市北区新金岡町1-3,,34.567074,135.510376,,,072-251-3634,,,,二葉学園,,,,,,,,,,
270008,,大阪府,,堺東幼稚園,サカイヒガシヨウチエン,,大阪府堺市堺区五月町5-23,,34.570877,135.483948,,,072-238-9561,,,,堺東学園,,,,,,,,,,
270008,,大阪府,,新金岡幼稚園,シンカナオカヨウチエン,,大阪府堺市北区新金岡町2-5-2,,34.570194,135.515396,,,072-252-0668,,,,杉本学園,,,,,,,,,,
270008,,大阪府,,中央幼稚園,チユウオウヨウチエン,,大阪府堺市北区新金岡町3-4,,34.571789,135.518463,,,072-251-2444,,,,後藤学園,,,,,,,,,,
270008,,大阪府,,光明幼稚園,ヒカリヨウチエン,,大阪府堺市北区新金岡町4-6,,34.566746,135.520737,,,072-251-3930,,,,光明学園,,,,,,,,,,
270008,,大阪府,,賢明学院幼稚園,ケンメイガクインヨウチエン,,大阪府堺市堺区霞ヶ丘町4-1-9,,34.552715,135.466537,,,072-241-5605,,,,賢明学院,,,,,,,,,,
270008,,大阪府,,はつしば学園幼稚園,ハツシバガクエンヨウチエン,,大阪府堺市東区日置荘西町2-42-1,,34.542812,135.533035,,,072-285-2882,,,,大阪初芝学園,,,,,,,,,,
270008,,大阪府,,暁幼稚園,アカツキヨウチエン,,大阪府堺市西区草部1601,,34.518059,135.461609,,,072-273-0300,,,,上田学園,,,,,,,,,,
270008,,大阪府,,宮山台幼稚園,ミヤヤマダイヨウチエン,,大阪府堺市南区宮山台4-4-1,,34.508984,135.495987,,,072-297-0290,,,,奥野学園,,,,,,,,,,
270008,,大阪府,,茶山台幼稚園,チヤヤマダイヨウチエン,,大阪府堺市南区茶山台2-6-1,,34.491184,135.515472,,,072-291-0608,,,,竹田学園,,,,,,,,,,
270008,,大阪府,,泉北光明幼稚園,センボクヒカリヨウチエン,,大阪府堺市南区高倉台4-2-1,,34.497421,135.527298,,,072-291-2509,,,,光明学園,,,,,,,,,,
270008,,大阪府,,槇塚幼稚園,マキヅカヨウチエン,,大阪府堺市南区槇塚台1-9,,34.484226,135.521713,,,072-291-2700,,,,吉川学園,,,,,,,,,,
270008,,大阪府,,子宝幼稚園,コダカラヨウチエン,,大阪府堺市西区上野芝向ヶ丘町6-15-6,,34.540421,135.483475,,,072-279-3618,,,,子宝学園,,,,,,,,,,
270008,,大阪府,,原山台幼稚園,ハラヤマダイヨウチエン,,大阪府堺市南区原山台4-4-1,,34.478752,135.494019,,,072-299-5110,,,,ふじ学園,,,,,,,,,,
270008,,大阪府,,香梅幼稚園,コウバイヨウチエン,,大阪府堺市南区庭代台2-6,,34.473045,135.496643,,,072-299-5000,,,,香梅学園,,,,,,,,,,
270008,,大阪府,,美木多幼稚園,ミキタヨウチエン,,大阪府堺市南区鴨谷台3-5-1,,34.471527,135.483002,,,072-296-0011,,,,鴨谷学園,,,,,,,,,,
270008,,大阪府,,太平寺幼稚園,タイヘイジヨウチエン,,大阪府堺市西区太平寺249-1,,34.508926,135.480469,,,072-298-6855,,,,北口学園,,,,,,,,,,
270008,,大阪府,,新ひのお台幼稚園,シンヒノオダイヨウチエン,,大阪府堺市南区新檜尾台4-19-1,,34.481468,135.478134,,,072-297-1228,,,,中井学園,,,,,,,,,,
270008,,大阪府,,浜寺太陽幼稚園,ハマデラタイヨウヨウチエン,,大阪府堺市西区浜寺石津町東5-8-25,,34.551826,135.453613,,,072-264-0340,,,,ひまわり学園,,,,,,,,,,
270008,,大阪府,,東百舌鳥幼稚園,ヒガシモズヨウチエン,,大阪府堺市中区土師町5-13-18,,34.540581,135.503296,,,072-236-3535,,,,樋口学園,,,,,,,,,,
270008,,大阪府,,長池昭和第二幼稚園,ナガイケシヨウワダイニヨウチエン,,大阪府堺市北区東浅香山町1-254,,34.582088,135.505219,,,072-252-0251,,,,臼井学園,,,,,,,,,,
270008,,大阪府,,大阪芸術大学附属泉北幼稚園,オオサカゲイジユツダイガクフゾクセンボクヨウチエン,,大阪府堺市南区御池台2-4-1,,34.466259,135.504868,,,072-298-7694,,,,塚本学院,,,,,,,,,,
270008,,大阪府,,宝珠学園幼稚園,ホウジユガクエンヨウチエン,,大阪府堺市堺区宿屋町東3-2-36,,34.581371,135.481583,,,072-228-2600,,,,宝珠学園,,,,,,,,,,
270008,,大阪府,,三宝幼稚園,サンポウヨウチエン,,大阪府堺市堺区三宝町4-236,,34.591923,135.474442,,,072-233-5380,,,,三宝学園,,,,,,,,,,
270008,,大阪府,,鳳幼稚園,オオトリヨウチエン,,大阪府堺市西区鳳中町５-156-3,,34.53326,135.45639,,,072-262-0033,,,,鴨谷学園,,,,,,,,,,
270008,,大阪府,,ひばり幼稚園,ヒバリヨウチエン,,大阪府和泉市寺田町2-2-2,,34.471176,135.433929,,,0725-41-4535,,,,清泉学園,,,,,,,,,,
270008,,大阪府,,和泉カトリック幼稚園,イズミカトリツクヨウチエン,,大阪府和泉市弥生町2-7-1,,34.47039,135.440781,,,0725-43-0807,,,,和泉マリア学園,,,,,,,,,,
270008,,大阪府,,双百合幼稚園,フタユリヨウチエン,,大阪府和泉市唐国町4-4-11,,34.450432,135.441589,,,0725-54-1770,,,,スピノラ学園,,,,,,,,,,
270008,,大阪府,,鶴山台国際幼稚園,ツルヤマダイコクサイヨウチエン,,大阪府和泉市鶴山台3-1-3,,34.502247,135.445892,,,0725-43-1888,,,,嶋田学園,,,,,,,,,,
270008,,大阪府,,聖ヶ岡幼稚園,ヒジリガオカヨウチエン,,大阪府和泉市太町133-1,,34.511024,135.442184,,,0725-41-0813,,,,日高学園,,,,,,,,,,
270008,,大阪府,,和泉緑ヶ丘幼稚園,イズミミドリガオカヨウチエン,,大阪府和泉市緑ヶ丘3-4-32,,34.445442,135.460938,,,0725-53-1261,,,,奥野学園,,,,,,,,,,
270008,,大阪府,,鶴山台明徳幼稚園,ツルヤマダイメイトクヨウチエン,,大阪府和泉市鶴山台1-17-1,,34.506969,135.451965,,,0725-45-2181,,,,嶋田学園,,,,,,,,,,
270008,,大阪府,,和泉幼稚園,イズミヨウチエン,,大阪府和泉市府中町6-2-38,,34.486568,135.427628,,,0725-45-0555,,,,和泉宮学園,,,,,,,,,,
270008,,大阪府,,岸和田いずみ幼稚園,キシワダイズミヨウチエン,,大阪府岸和田市土生町9-16-3,,34.447235,135.388184,,,072-427-1952,,,,和泉学園,,,,,,,,,,
270008,,大阪府,,二色幼稚園,ニシキヨウチエン,,大阪府貝塚市脇浜4-3-5,,34.437351,135.346878,,,072-433-3345,,,,楠学院,,,,,,,,,,
270008,,大阪府,,安松幼稚園,ヤスマツヨウチエン,,大阪府泉佐野市南中安松1126,,34.393303,135.309464,,,072-466-1828,,,,真曜学園,,,,,,,,,,
270008,,大阪府,,砂川第二幼稚園,スナガワダイニヨウチエン,,大阪府泉南市新家4527,,34.37973,135.29953,,,072-484-1122,,,,いづみ学園,,,,,,,,,,
270008,,大阪府,,熊取みどり幼稚園,クマトリミドリヨウチエン,,大阪府泉南郡熊取町野田1-7-5,,34.401047,135.359177,,,072-452-0447,,,,池浦学園,,,,,,,,,,
270008,,大阪府,,桃の木台幼稚園,モモノキダイヨウチエン,,大阪府阪南市桃の木台5-21-26,,34.326271,135.218582,,,072-476-1432,,,,いづみ学園,,,,,,,,,,
270008,,大阪府,,さつき台幼稚園,サツキダイヨウチエン,,大阪府阪南市さつき台2-9,,34.337234,135.25032,,,072-471-3344,,,,いづみ学園,,,,,,,,,,
270008,,大阪府,,愛輝幼稚園,アイキヨウチエン,,大阪府大阪市福島区福島7-19-16,,34.700066,135.485229,,,06-6451-0320,,,,大阪福島キリスト教学園,,,,,,,,,,
270008,,大阪府,,梅香幼稚園,バイカヨウチエン,,大阪府大阪市此花区梅香3-3-6,,34.680996,135.455627,,,06-6461-1339,,,,山上　啓治,,,,,,,,,,
270008,,大阪府,,福音幼稚園,フクインヨウチエン,,大阪府大阪市西区九条南2-13-8,,34.672192,135.473602,,,06-6584-2469,,,,大阪九条キリスト教学園,,,,,,,,,,
270008,,大阪府,,南恩加島幼稚園,ミナミオカジマヨウチエン,,大阪府大阪市大正区平尾5-7-7,,34.638828,135.470856,,,06-6551-2408,,,,大阪武田学園,,,,,,,,,,
270008,,大阪府,,真生幼稚園,シンセイヨウチエン,,大阪府大阪市天王寺区真法院町15-15,,34.656734,135.520782,,,06-6771-0153,,,,日本福音ル−テル教会,,,,,,,,,,
270008,,大阪府,,佃幼稚園,ツクダヨウチエン,,大阪府大阪市西淀川区佃2-8-2,,34.713478,135.446243,,,06-6471-3579,,,,田蓑学園,,,,,,,,,,
270008,,大阪府,,博愛社学園幼稚園,ハクアイシヤガクエンヨウチエン,,大阪府大阪市淀川区十三元今里3-1-72,,34.721638,135.475861,,,06-6302-2095,,,,博愛社学園,,,,,,,,,,
270008,,大阪府,,放出幼稚園,ハナテンヨウチエン,,大阪府大阪市城東区放出西3-5-16,,34.689892,135.556503,,,06-6961-4110,,,,正因寺,,,,,,,,,,
270008,,大阪府,,全愛幼稚園,ゼンアイヨウチエン,,大阪府大阪市城東区鴫野西3-6-2,,34.693981,135.539429,,,06-6961-1627,,,,全愛学園,,,,,,,,,,
270008,,大阪府,,諸口幼稚園,モログチヨウチエン,,大阪府大阪市鶴見区諸口3-3-66,,34.701611,135.577225,,,06-6911-3198,,,,安井学園,,,,,,,,,,
270008,,大阪府,,南大阪幼稚園,ミナミオオサカヨウチエン,,大阪府大阪市阿倍野区阪南町1-30-5,,34.635471,135.515823,,,06-6622-2013,,,,日本基督教団南大阪教会,,,,,,,,,,
270008,,大阪府,,松虫幼稚園,マツムシヨウチエン,,大阪府大阪市阿倍野区王子町2-5-13,,34.632927,135.510056,,,06-6621-9115,,,,前島学園,,,,,,,,,,
270008,,大阪府,,南港幼稚園,ナンコウヨウチエン,,大阪府大阪市住之江区南港中2-5-55,,34.628914,135.429169,,,06-6613-0900,,,,坂越学園,,,,,,,,,,
270008,,大阪府,,アスール幼稚園,アス−ルヨウチエン,,大阪府大阪市住之江区南港中3-7-1,,34.627644,135.426208,,,06-6614-0700,,,,秋都学院,,,,,,,,,,
270008,,大阪府,,第二すみれ幼稚園,ダイニスミレヨウチエン,,大阪府大阪市東住吉区杭全2-11-23,,34.636978,135.536835,,,06-6713-0431,,,,すみれ学園,,,,,,,,,,
270008,,大阪府,,平和幼稚園,ヘイワヨウチエン,,大阪府大阪市東住吉区田辺4-13-9,,34.622894,135.526382,,,06-6621-8838,,,,たつみ東学園,,,,,,,,,,
270008,,大阪府,,田辺幼稚園,タナベヨウチエン,,大阪府大阪市東住吉区山坂1-19-24,,34.626259,135.521622,,,06-6622-1788,,,,河智学園,,,,,,,,,,
270008,,大阪府,,岸の里幼稚園,キシノサトヨウチエン,,大阪府大阪市西成区千本南1-10-26,,34.631588,135.4897,,,06-6661-7396,,,,浜田　久美子,,,,,,,,,,
270008,,大阪府,,扇町同胞幼稚園,オオギマチドウホウヨウチエン,,大阪府大阪市北区神山町9-19,,34.703835,135.505112,,,06-6361-1235,,,,扇町同胞学園,,,,,,,,,,
270008,,大阪府,,豊中幼稚園,トヨナカヨウチエン,,大阪府豊中市中桜塚4-8-4,,34.781467,135.472534,,,06-6852-5610,,,,有本　亮現,,,,,,,,,,
270008,,大阪府,,曽根幼稚園,ソネヨウチエン,,大阪府豊中市南桜塚1-12-31,,34.774902,135.468018,,,06-6852-5220,,,,荒木　祐子,,,,,,,,,,
270008,,大阪府,,東豊中幼稚園,ヒガシトヨナカヨウチエン,,大阪府豊中市東豊中町4-4-1,,34.797768,135.482208,,,06-6858-4152,,,,春事学園,,,,,,,,,,
270008,,大阪府,,春日荘聖マリア幼稚園,カスガソウセイマリアヨウチエン,,大阪府豊中市春日町3-8-15,,34.810322,135.470337,,,06-6857-8151,,,,善き牧者聖母学院,,,,,,,,,,
270008,,大阪府,,服部みどり幼稚園,ハツトリミドリヨウチエン,,大阪府豊中市城山町4-9-8,,34.769527,135.480118,,,06-6862-1269,,,,基督心宗学園,,,,,,,,,,
270008,,大阪府,,超光寺幼稚園,チヨウコウジヨウチエン,,大阪府豊中市岡町南1-7-27,,34.776463,135.46431,,,06-6857-5210,,,,超光寺学園,,,,,,,,,,
270008,,大阪府,,池田五月山教会幼稚園,イケダサツキヤマキヨウカイヨウチエン,,大阪府池田市五月ヶ丘2-7-19,,34.826988,135.433701,,,072-751-5130,,,,池田五月山教会学園,,,,,,,,,,
270008,,大阪府,,朝日幼稚園,アサヒヨウチエン,,大阪府吹田市高浜町10-38,,34.760216,135.527435,,,06-6381-5539,,,,岸田　照幸,,,,,,,,,,
270008,,大阪府,,日本基督教団茨木教会附属めぐみ幼稚園,ニホンキリストキョウダンイバラキキョウカイフゾク　メグミヨウチエン,,大阪府茨木市春日3-12-8,,34.820877,135.563034,,,072-622-2739,,,,日本基督教団茨木教会,,,,,,,,,,
270008,,大阪府,,常磐会短期大学付属茨木高美幼稚園,トキワカイタンキダイガクフゾクイバラキタカミヨウチエン,,大阪府茨木市小川町7-3,,34.809956,135.568436,,,072-622-2052,,,,常磐会学園,,,,,,,,,,
270008,,大阪府,,くずはローズ幼稚園,クズハロ−ズヨウチエン,,大阪府枚方市南楠葉1-4-1,,34.860126,135.68248,,,072-856-5058,,,,北山学園,,,,,,,,,,
270008,,大阪府,,花田口聖母幼稚園,ハナタグチセイボヨウチエン,,大阪府堺市堺区北三国ヶ丘町1-1-50,,34.57642,135.487091,,,072-233-3479,,,,カトリックカリタス修道会,,,,,,,,,,
270008,,大阪府,,堺金岡幼稚園,サカイカナオカヨウチエン,,大阪府堺市北区北長尾町2-5-5,,34.576786,135.499893,,,072-252-1948,,,,日本基督教団堺教会,,,,,,,,,,
270008,,大阪府,,浜寺聖書幼稚園,ハマデラセイシヨヨウチエン,,大阪府堺市西区浜寺昭和町1-63,,34.544842,135.448029,,,072-261-2544,,,,福音交友会,,,,,,,,,,
270008,,大阪府,,開花幼稚園,カイカヨウチエン,,大阪府堺市堺区大町西3-1-13,,34.578194,135.469849,,,072-223-4410,,,,堺キリスト学園,,,,,,,,,,
270008,,大阪府,,聖母幼稚園,セイボヨウチエン,,大阪府岸和田市筋海町18-17,,34.464828,135.37532,,,072-437-1687,,,,ザビエル学園,,,,,,,,,,
270008,,大阪府,,貝塚カトリック幼稚園,カイヅカカトリツクヨウチエン,,大阪府貝塚市加神1-3-12,,34.442402,135.356583,,,072-432-3974,,,,ザビエル学園,,,,,,,,,,
270008,,大阪府,,カトリック天使幼稚園,カトリツクテンシヨウチエン,,大阪府泉佐野市市場南2-69,,34.402763,135.329453,,,072-462-1188,,,,ザビエル学園,,,,,,,,,,
270008,,大阪府,,海星幼稚園,カイセイヨウチエン,,大阪府泉南郡岬町深日2240-2,,34.315727,135.140076,,,072-492-0489,,,,ザビエル学園,,,,,,,,,,
270008,,大阪府,,岬町立深日保育所,ミサキチョウリツフケホイクショ,,大阪府泉南郡岬町深日899,,34.309891,135.167343,,,072-492-4955,,,,岬町,,,,,,,,,,
270008,,大阪府,,岬町立淡輪保育所,ミサキチョウリツタンノワホイクショ,,大阪府泉南郡岬町淡輪4535-1,,34.329067,135.174042,,,072-494-3567,,,,岬町,,,,,,,,,,
270008,,大阪府,,阪南市立下荘保育所,ハンナンシリツシモショウホイクショ,,大阪府阪南市箱作998-1,,34.34322,135.210205,,,072-476-5430,,,,阪南市,,,,,,,,,,
270008,,大阪府,,阪南市立石田保育所,ハンナンシリツイシダホイクショ,,大阪府阪南市石田600-1,,34.348782,135.246414,,,072-471-3201,,,,阪南市,,,,,,,,,,
270008,,大阪府,,ココアンジュ新家,ココアンジュシンゲ,,大阪府泉南市新家938-1,,34.366219,135.300583,,,072-484-0190,,,,(福)三谷園,,,,,,,,,,
270008,,大阪府,,阪南市立尾崎保育所,ハンナンシリツオザキホイクショ,,大阪府阪南市尾崎町4-23-2,,34.366581,135.245117,,,072-471-3202,,,,阪南市,,,,,,,,,,
270008,,大阪府,,泉南市立浜保育所,センナンシリツハマホイクショ,,大阪府泉南市男里7-13-1,,34.374252,135.255402,,,072-484-2660,,,,泉南市,,,,,,,,,,
270008,,大阪府,,ニチイキッズ泉南保育園,ニチイキッズセンナンホイクエン,,大阪府泉南市樽井8-7-5,,34.375019,135.26915,,,072-483-4041,,,,(株)ニチイ学館,,,,,,,,,,
270008,,大阪府,,つばさ共同保育園,ツバサキョウドウホイクショ,,大阪府泉南郡熊取町つばさが丘西2-3-1,,34.383858,135.371216,,,072-451-2535,,,,(福)アトム共同福祉会,,,,,,,,,,
270008,,大阪府,,アトム共同保育園,アトムキョウドウホイクショ,,大阪府泉南郡熊取町長池2-1,,34.389992,135.353561,,,072-452-7112,,,,(福)アトム共同福祉会,,,,,,,,,,
270008,,大阪府,,熊取町立東保育所,クマトリチョウリツヒガシホイクショ,,大阪府泉南郡熊取町久保2-1480-1,,34.393551,135.36734,,,072-452-0310,,,,熊取町,,,,,,,,,,
270008,,大阪府,,田尻町立保育所,タジリチョウリツホイクショ,,大阪府泉南郡田尻町嘉祥寺432-1,,34.39431,135.289902,,,072-465-0079,,,,田尻町,,,,,,,,,,
270008,,大阪府,,熊取町立西保育所,クマトリチョウリツニシホイクショ,,大阪府泉南郡熊取町大久保南1-1573,,34.395645,135.344803,,,072-452-1200,,,,熊取町,,,,,,,,,,
270008,,大阪府,,熊取町立中央保育所,クマトリチョウリツチュウオウホイクショ,,大阪府泉南郡熊取町五門西2-14-14,,34.400013,135.347397,,,072-452-0009,,,,熊取町,,,,,,,,,,
270008,,大阪府,,熊取町立北保育所,クマトリチョウリツキタホイクショ,,大阪府泉南郡熊取町希望が丘4-14-2,,34.406071,135.365036,,,072-453-0573,,,,熊取町,,,,,,,,,,
270008,,大阪府,,すみれ保育園,スミレホイクエン,,大阪府泉南郡熊取町大久保北3-372-1,,34.407818,135.344147,,,072-453-3000,,,,(福)永楽福祉会,,,,,,,,,,
270008,,大阪府,,鶴原保育園,ツルハラホイクエン,,大阪府泉佐野市鶴原1033,,34.419411,135.344391,,,072-463-0065,,,,(福)水平会,,,,,,,,,,
270008,,大阪府,,美加の台保育園,ミカノダイホイクエン,,大阪府河内長野市美加の台1-35-7,,34.42551,135.581909,,,0721-63-5110,,,,(福)幸悠会,,,,,,,,,,
270008,,大阪府,,岸和田市立修斉保育所,キシワダシリツシュウサイホイクショ,,大阪府岸和田市真上町55,,34.427807,135.40506,,,072-427-9767,,,,岸和田市,,,,,,,,,,
270008,,大阪府,,高向保育園,タコウホイクエン,,大阪府河内長野市旭ｹ丘34-14,,34.430111,135.539474,,,0721-52-5753,,,,(福)たこう福祉会,,,,,,,,,,
270008,,大阪府,,高向保育園（分園）,タコウホイクエンブンエン,,大阪府河内長野市旭ヶ丘36-10,,34.430691,135.539658,,,0721-52-5783,,,,(福)たこう福祉会,,,,,,,,,,
270008,,大阪府,,南嶺保育園,ナンレイホイクエン,,大阪府河内長野市南花台6-16-1,,34.431286,135.554504,,,0721-62-2200,,,,(福)みのり学園,,,,,,,,,,
270008,,大阪府,,みなまつ保育園,ミナマツホイクエン,,大阪府和泉市松尾寺町1525-5,,34.432076,135.459396,,,0725-53-3004,,,,(福)童夢創成館,,,,,,,,,,
270008,,大阪府,,大典保育園,タイテンホイクエン,,大阪府河内長野市小塩町325-3,,34.434986,135.56572,,,0721-63-7403,,,,(福)大典福祉会,,,,,,,,,,
270008,,大阪府,,天宗清見台園,テンソウキヨミダイエン,,大阪府河内長野市清見台1-14-1,,34.435997,135.57843,,,0721-65-6518,,,,(福)天宗社会福祉事業会,,,,,,,,,,
270008,,大阪府,,げんき保育園,ゲンキホイクエン,,大阪府南河内郡千早赤阪村大字小吹68-912,,34.43774,135.604126,,,0721-72-7868,,,,(福)千早赤阪福祉会,,,,,,,,,,
270008,,大阪府,,観心寺保育園,カンシンジホイクエン,,大阪府河内長野市寺元501-1,,34.438122,135.594238,,,0721-65-0050,,,,(福)川上会,,,,,,,,,,
270008,,大阪府,,海塚保育所,ウミヅカホイクショ,,大阪府貝塚市海塚1-10-17,,34.443871,135.358597,,,072-432-7847,,,,(福)白小鳩福祉事業会,,,,,,,,,,
270008,,大阪府,,ひさほ保育園,ヒサホホイクエン,,大阪府貝塚市久保568,,34.444077,135.380508,,,072-427-5688,,,,(福)泉州福祉会,,,,,,,,,,
270008,,大阪府,,ひがし保育園,ヒガシホイクエン,,大阪府貝塚市海塚581-1,,34.445621,135.3535,,,072-431-9006,,,,(福)ときわ福祉会,,,,,,,,,,
270008,,大阪府,,岸和田市立旭保育所,キシワダシリツアサヒホイクショ,,大阪府岸和田市土生町7-5-1,,34.445889,135.391342,,,072-427-7934,,,,岸和田市,,,,,,,,,,
270008,,大阪府,,和泉市立緑ケ丘保育園,イズミシリツミドリガオカホイクエン,,大阪府和泉市緑ｹ丘3-1-12,,34.447384,135.459625,,,0725-54-2500,,,,和泉市,,,,,,,,,,
270008,,大阪府,,聖愛保育園,セイアイホイクエン,,大阪府河内長野市野作町11-46,,34.45145,135.560486,,,0721-52-2973,,,,(福)泉カナン会,,,,,,,,,,
270008,,大阪府,,めだか保育園,メダカホイクエン,,大阪府岸和田市土生町4175,,34.451576,135.384781,,,072-422-2923,,,,(福)さくら福祉会,,,,,,,,,,
270008,,大阪府,,岸和田市立桜台保育所,キシワダシリツサクラダイホイクショ,,大阪府岸和田市尾生町5-3-40,,34.453495,135.411346,,,072-444-6291,,,,岸和田市,,,,,,,,,,
270008,,大阪府,,岸和田市立城内保育所,キシワダシリツジョウナイホイクショ,,大阪府岸和田市上町33-5,,34.454342,135.377167,,,072-439-9981,,,,岸和田市,,,,,,,,,,
270008,,大阪府,,杉乃木保育園,スギノキホイクエン,,大阪府岸和田市八阪町3-15-12,,34.455639,135.39003,,,072-438-8646,,,,(福)杉乃木福祉会,,,,,,,,,,
270008,,大阪府,,岸和田市立山直北保育所,キシワダシリツヤマダイキタホイクショ,,大阪府岸和田市岡山町177-2,,34.457672,135.426254,,,072-445-0355,,,,岸和田市,,,,,,,,,,
270008,,大阪府,,夜間保育園いぶきのほしぞら,ヤカンホイクエンイブキノホシゾラ,,大阪府和泉市いぶき野5-5-5,,34.460011,135.459229,,,0725-50-4000,,,,(福)和泉福祉会,,,,,,,,,,
270008,,大阪府,,岸和田市立浜保育所,キシワダシリツハマホイクショ,,大阪府岸和田市中之浜町10-9,,34.461483,135.365845,,,072-422-0198,,,,岸和田市,,,,,,,,,,
270008,,大阪府,,和泉市立北松尾保育園,イズミシリツキタマツオホイクエン,,大阪府和泉市いぶき野2-27-1,,34.461628,135.450638,,,0725-54-0438,,,,和泉市,,,,,,,,,,
270008,,大阪府,,城東保育園,ジョウトウホイクエン,,大阪府岸和田市三田町166,,34.461685,135.431595,,,072-443-4451,,,,(福)高陽会,,,,,,,,,,
270008,,大阪府,,河内長野市立千代田台保育所,カワチナガノシリツチヨダダイホイクショ,,大阪府河内長野市千代田台町1-1,,34.463596,135.561752,,,0721-53-2231,,,,河内長野市,,,,,,,,,,
270008,,大阪府,,ちづる保育園,チヅルホイクエン,,大阪府河内長野市木戸西町3-7-6,,34.463818,135.564926,,,0721-54-5511,,,,(福)ちづる保育園,,,,,,,,,,
270008,,大阪府,,中央保育園,チュウオウホイクエン,,大阪府岸和田市北町16-14,,34.466164,135.373795,,,072-438-1981,,,,(福)さくら福祉会,,,,,,,,,,
270008,,大阪府,,岸和田市立八木北保育所,キシワダシリツヤギキタホイクショ,,大阪府岸和田市大町3-21-20,,34.468182,135.411469,,,072-443-2995,,,,岸和田市,,,,,,,,,,
270008,,大阪府,,汐の宮保育園,シオノミヤホイクエン,,大阪府河内長野市汐の宮町8-39,,34.468765,135.579681,,,0721-52-1414,,,,(福)たこう福祉会,,,,,,,,,,
270008,,大阪府,,岸和田市立大宮保育所,キシワダシリツオオミヤホイクショ,,大阪府岸和田市加守町4-6-38,,34.469757,135.389816,,,072-445-7464,,,,岸和田市,,,,,,,,,,
270008,,大阪府,,岸和田市立千喜里保育所,キシワダシリツチキリホイクショ,,大阪府岸和田市上野町西15-20,,34.470039,135.381073,,,072-422-1344,,,,岸和田市,,,,,,,,,,
270008,,大阪府,,おおさかちよだ保育園,オオサカチヨダホイクエン,,大阪府河内長野市楠町西1145,,34.471828,135.558533,,,0721-52-1705,,,,(福)ちよだ福祉会,,,,,,,,,,
270008,,大阪府,,柳風台保育園,リュウフウダイホイクエン,,大阪府河内長野市木戸3-9-1,,34.474258,135.569382,,,0721-53-7960,,,,(福)柳風福祉会,,,,,,,,,,
270008,,大阪府,,岸和田市立春木保育所,キシワダシリツハルキホイクショ,,大阪府岸和田市春木泉町1-5,,34.475239,135.38176,,,072-439-6431,,,,岸和田市,,,,,,,,,,
270008,,大阪府,,和泉市立北池田保育園,イズミシリツキタイケダホイクエン,,大阪府和泉市池田下町1984-1,,34.475899,135.455109,,,0725-55-0569,,,,和泉市,,,,,,,,,,
270008,,大阪府,,富田林市立彼方保育園,トンダバヤシシリツオチカタホイクエン,,大阪府富田林市大字彼方37,,34.476284,135.587555,,,0721-33-3943,,,,富田林市,,,,,,,,,,
270008,,大阪府,,双葉児童園,フタバジドウエン,,大阪府岸和田市春木中町2-3,,34.477715,135.386902,,,072-422-2801,,,,(福)双葉児童園,,,,,,,,,,
270008,,大阪府,,岸和田市立城北保育所,キシワダシリツジョウホクホイクショ,,大阪府岸和田市吉井町1-16-24,,34.479248,135.398392,,,072-444-3785,,,,岸和田市,,,,,,,,,,
270008,,大阪府,,和泉市立国府第一保育園,イズミシリツコクフダイイチホイクエン,,大阪府和泉市井ﾉ口町6-42,,34.482201,135.421371,,,0725-43-2626,,,,和泉市,,,,,,,,,,
270008,,大阪府,,和泉市立国府第二保育園,イズミシリツコクフダイニホイクエン,,大阪府和泉市府中町5-6-33,,34.483562,135.433517,,,0725-44-7722,,,,和泉市,,,,,,,,,,
270008,,大阪府,,忠岡町立東忠岡保育所,タダオカチョウリツヒガシタダオカホイクショ,,大阪府泉北郡忠岡町馬瀬2-17-3,,34.484051,135.405197,,,0725-32-6700,,,,忠岡町,,,,,,,,,,
270008,,大阪府,,河南町立中央保育園,カナンチョウリツチュウオウホイクエン,,大阪府南河内郡河南町大字白木1249-2,,34.489445,135.629791,,,0721-93-5740,,,,河南町,,,,,,,,,,
270008,,大阪府,,寺池台保育園,テライケダイホイクエン,,大阪府富田林市寺池台2-16-1,,34.489613,135.572571,,,0721-69-7752,,,,(福)光久福祉会,,,,,,,,,,
270008,,大阪府,,泉大津市立要保育所,イズミオオツシリツカナメホイクショ,,大阪府泉大津市池浦515-6,,34.491215,135.419891,,,0725-22-0564,,,,泉大津市,,,,,,,,,,
270008,,大阪府,,和泉市立和泉保育園,イズミシリツイズミホイクエン,,大阪府和泉市伯太町2-5-16,,34.491707,135.43399,,,0725-41-5811,,,,和泉市,,,,,,,,,,
270008,,大阪府,,菊水保育園,キクスイホイクエン,,大阪府富田林市廿山1-12-4,,34.492973,135.574219,,,0721-29-3837,,,,(福)菊水保育園,,,,,,,,,,
270008,,大阪府,,富田林市立金剛保育園,トンダバヤシシリツコンゴウホイクエン,,大阪府富田林市寺池台1-9-9,,34.494793,135.566803,,,0721-29-1474,,,,富田林市,,,,,,,,,,
270008,,大阪府,,花梨つばさ保育園,カリンツバサホイクエン,,大阪府大阪狭山市半田5-215-1,,34.496395,135.55481,,,072-366-0283,,,,(福)光久福祉会,,,,,,,,,,
270008,,大阪府,,富貴の里保育園,フキノサトホイクエン,,大阪府富田林市小金台1-14-15,,34.49699,135.582809,,,0721-28-7364,,,,(福)凛優会,,,,,,,,,,
270008,,大阪府,,ともっち保育園,トモッチホイクエン,,大阪府富田林市高辺台2-20-18,,34.497196,135.571564,,,0721-28-1584,,,,(福)朋星会,,,,,,,,,,
270008,,大阪府,,泉大津市立戎保育所,イズミオオツシリツエビスホイクショ,,大阪府泉大津市高津町3-19,,34.498344,135.40004,,,0725-21-1471,,,,泉大津市,,,,,,,,,,
270008,,大阪府,,葛城保育園,カツラギホイクエン,,大阪府富田林市久野喜台2-15-9,,34.498825,135.561066,,,0721-29-9211,,,,(福)徳風会,,,,,,,,,,
270008,,大阪府,,宙保育園,ソラホイクエン,,大阪府富田林市高辺台2-14-24,,34.499443,135.574188,,,0721-70-7780,,,,(福)大地福祉会,,,,,,,,,,
270008,,大阪府,,富田林市立富田林保育園,トンダバヤシシリツトンダバヤシホイクエン,,大阪府富田林市富田林町14-27,,34.499619,135.601929,,,0721-23-3941,,,,富田林市,,,,,,,,,,
270008,,大阪府,,常徳保育園,ジョウトクホイクエン,,大阪府富田林市常盤町14-21,,34.499702,135.598862,,,0721-25-3561,,,,(福)徳風会,,,,,,,,,,
270008,,大阪府,,富田林市立大伴保育園,トンダバヤシシリツオオトモホイクエン,,大阪府富田林市北大伴町2-12-4,,34.50362,135.619095,,,0721-23-6579,,,,富田林市,,,,,,,,,,
270008,,大阪府,,みどり保育園,ミドリホイクエン,,大阪府富田林市若松町1-10-10,,34.504074,135.603882,,,0721-24-4190,,,,(福)光久福祉会,,,,,,,,,,
270008,,大阪府,,和泉市立くすのき保育園,イズミシリツクスノキホイクエン,,大阪府和泉市王子町2-8-25,,34.504688,135.44017,,,0725-44-9170,,,,和泉市,,,,,,,,,,
270008,,大阪府,,和泉市立鶴山台第一保育園,イズミシリツツルヤマダイダイイチホイクエン,,大阪府和泉市鶴山台2-2-6,,34.50473,135.450241,,,0725-44-1771,,,,和泉市,,,,,,,,,,
270008,,大阪府,,富田林市立金剛東保育園,トンダバヤシシリツコンゴウヒガシホイクエン,,大阪府富田林市藤沢台1-4-4,,34.505184,135.574997,,,0721-29-1600,,,,富田林市,,,,,,,,,,
270008,,大阪府,,富田林市立若葉保育園,トンダバヤシシリツワカバホイクエン,,大阪府富田林市若松町3-2-20,,34.505234,135.608017,,,0721-24-3308,,,,富田林市,,,,,,,,,,
270008,,大阪府,,泉大津市立浜保育所,イズミオオツシリツハマホイクショ,,大阪府泉大津市菅原町13-29,,34.506908,135.40416,,,0725-33-5432,,,,泉大津市,,,,,,,,,,
270008,,大阪府,,泉大津市立条東保育所,イズミオオツシリツジョウトウホイクショ,,大阪府泉大津市千原町2-1-3,,34.508495,135.427231,,,0725-21-0221,,,,泉大津市,,,,,,,,,,
270008,,大阪府,,池尻保育園,イケジリホイクエン,,大阪府大阪狭山市池尻中1-12-8,,34.511459,135.5513,,,072-367-2020,,,,(福)光久福祉会,,,,,,,,,,
270008,,大阪府,,ルンビニ保育園,ルンビニホイクエン,,大阪府大阪狭山市池尻北2-20-23,,34.515213,135.553192,,,072-365-8808,,,,(福)光久福祉会,,,,,,,,,,
270008,,大阪府,,池尻なな保育園,イケジリナナホイクエン,,大阪府大阪狭山市池尻中1-35-41,,34.515228,135.547379,,,072-290-7731,,,,(福)光久福祉会,,,,,,,,,,
270008,,大阪府,,やわらぎ保育園,ヤワラギホイクエン,,大阪府南河内郡太子町山田306,,34.516079,135.650879,,,0721-98-0063,,,,(福)やわらぎ保育園,,,,,,,,,,
270008,,大阪府,,高石市立綾園保育所,タカイシシリツアヤゾノホイクショ,,大阪府高石市綾園3-12-36,,34.518063,135.431366,,,072-263-1166,,,,高石市,,,,,,,,,,
270008,,大阪府,,ふれんど保育園,フレンドホイクエン,,大阪府富田林市桜井町2-1845-4,,34.519253,135.60939,,,0721-26-3571,,,,(福)華芯会,,,,,,,,,,
270008,,大阪府,,梅の里保育園,ウメノサトホイクエン,,大阪府富田林市梅の里1-2-5,,34.525177,135.600677,,,0721-23-4555,,,,(福)光久福祉会,,,,,,,,,,
270008,,大阪府,,松の木保育園,マツノキホイクエン,,大阪府南河内郡太子町春日183-8,,34.528557,135.640701,,,0721-98-2882,,,,(福)心和福祉会,,,,,,,,,,
270008,,大阪府,,羽曳野市立下開保育園,ハビキノシリツシモビラキホイクエン,,大阪府羽曳野市古市1394,,34.54562,135.613647,,,072-958-3318,,,,羽曳野市,,,,,,,,,,
270008,,大阪府,,四天王寺悲田院保育園,シテンノウジヒデンインホイクエン,,大阪府羽曳野市学園前6-1-1,,34.548134,135.583939,,,072-957-7517,,,,(福)四天王寺福祉事業団,,,,,,,,,,
270008,,大阪府,,羽曳野市立軽里保育園,ハビキノシリツカルサトホイクエン,,大阪府羽曳野市軽里3-222,,34.550358,135.601685,,,072-958-3338,,,,羽曳野市,,,,,,,,,,
270008,,大阪府,,羽曳野市立はびきの保育園,ハビキノシリツハビキノホイクエン,,大阪府羽曳野市はびきの4-20-17,,34.552265,135.589188,,,072-958-3328,,,,羽曳野市,,,,,,,,,,
270008,,大阪府,,旭丘まぶね保育園,アサヒガオカマブネホイクエン,,大阪府柏原市旭ｹ丘3-13-43,,34.557472,135.639114,,,072-976-1912,,,,(福)日本コイノニア福祉会,,,,,,,,,,
270008,,大阪府,,誉田保育園,コンダホイクエン,,大阪府羽曳野市誉田3-2-30,,34.559547,135.610901,,,072-958-2525,,,,(福)誉田福祉会,,,,,,,,,,
270008,,大阪府,,南河学園附属国分保育園,ナンカガクエンフゾクコクブホイクエン,,大阪府柏原市国分本町7-6-14,,34.562561,135.643265,,,072-978-6825,,,,(福)南河学園,,,,,,,,,,
270008,,大阪府,,羽曳野市立向野保育園,ハビキノシリツムカイノホイクエン,,大阪府羽曳野市向野523,,34.562744,135.575012,,,072-953-2071,,,,羽曳野市,,,,,,,,,,
270008,,大阪府,,岡町学園,オカマチガクエン,,大阪府松原市岡2-10-31,,34.563858,135.556305,,,072-334-5116,,,,(福)岡町福祉会,,,,,,,,,,
270008,,大阪府,,柏原市立円明保育所,カシワラシリツエンミョウホイクショ,,大阪府柏原市玉手町12-30,,34.565186,135.626312,,,072-978-6132,,,,柏原市,,,,,,,,,,
270008,,大阪府,,柏原市立国分保育所,カシワラシリツコクブホイクショ,,大阪府柏原市国分本町6-11-28,,34.565216,135.640549,,,072-978-6368,,,,柏原市,,,,,,,,,,
270008,,大阪府,,藤井寺市立第4保育所,フジイデラシリツダイ４ホイクショ,,大阪府藤井寺市道明寺6-15-34,,34.566601,135.613632,,,072-939-7138,,,,藤井寺市,,,,,,,,,,
270008,,大阪府,,新堂保育園,シンドウホイクエン,,大阪府松原市新堂5-227-1,,34.566696,135.549362,,,072-332-7707,,,,(福)岡町福祉会,,,,,,,,,,
270008,,大阪府,,北阪保育園,キタサカホイクエン,,大阪府柏原市片山町1-19,,34.568077,135.633499,,,072-977-4936,,,,(福)北阪福祉会,,,,,,,,,,
270008,,大阪府,,ふじの子第二保育園,フジノコダイ２ホイクエン,,大阪府藤井寺市藤井寺1-19-7,,34.569801,135.595108,,,072-938-2402,,,,(福)窓,,,,,,,,,,
270008,,大阪府,,藤井寺市立第3保育所,フジイデラシリツダイ３ホイクショ,,大阪府藤井寺市藤井寺1-19-58,,34.570034,135.593918,,,072-939-7128,,,,藤井寺市,,,,,,,,,,
270008,,大阪府,,高鷲保育園,タカワシホイクエン,,大阪府羽曳野市南恵我之荘2-6-22,,34.570194,135.574448,,,072-953-3883,,,,(福)大阪福祉事業財団,,,,,,,,,,
270008,,大阪府,,ベビーハウス社協,ベビーハウスシャキョウ,,大阪府羽曳野市高鷲9-2-17,,34.570484,135.582687,,,072-930-0240,,,,(福)羽曳野市社会福祉協議会,,,,,,,,,,
270008,,大阪府,,うえだおおぞら保育園,ウエダオオゾラホイクエン,,大阪府松原市上田8-11-7,,34.571285,135.562286,,,072-337-6051,,,,(福)聖徳会,,,,,,,,,,
270008,,大阪府,,羽曳野市立島泉保育園,ハビキノシリツシマイズミホイクエン,,大阪府羽曳野市島泉1-16-6,,34.572403,135.580399,,,072-953-4624,,,,羽曳野市,,,,,,,,,,
270008,,大阪府,,松原市立第３保育所,マツバラシリツダイ３ホイクショ,,大阪府松原市上田7-11-34,,34.572674,135.559006,,,072-332-8763,,,,松原市,,,,,,,,,,
270008,,大阪府,,ふじの子保育園,フジノコホイクエン,,大阪府藤井寺市岡2-11-57,,34.572857,135.592896,,,072-953-2405,,,,(福)窓,,,,,,,,,,
270008,,大阪府,,松原市立第２保育所,マツバラシリツダイ２ホイクショ,,大阪府松原市南新町3-7-30,,34.573227,135.536362,,,072-331-7846,,,,松原市,,,,,,,,,,
270008,,大阪府,,藤井寺市立第5保育所,フジイデラシリツダイ５ホイクショ,,大阪府藤井寺市国府1-3-28,,34.575165,135.618301,,,072-939-7148,,,,藤井寺市,,,,,,,,,,
270008,,大阪府,,藤井寺市立第2保育所,フジイデラシリツダイ２ホイクショ,,大阪府藤井寺市林3-1-25,,34.575172,135.610443,,,072-939-7118,,,,藤井寺市,,,,,,,,,,
270008,,大阪府,,惣社保育園,ソウシャホイクエン,,大阪府藤井寺市惣社1-3-28,,34.575306,135.61673,,,072-931-7333,,,,(福)そうび会,,,,,,,,,,
270008,,大阪府,,まつばら駅前おおぞら保育園,マツバラエキマエアオゾラホイクエン,,大阪府松原市上田4-3-32,,34.575409,135.553543,,,072-338-0288,,,,(福)聖徳会,,,,,,,,,,
270008,,大阪府,,ラミー保育園,ラミーホイクエン,,大阪府藤井寺市小山9-4-8,,34.575623,135.600204,,,072-952-4115,,,,(福)神愛福祉会,,,,,,,,,,
270008,,大阪府,,アミリア保育園,アミリアホイクエン,,大阪府松原市西野々1-9-3,,34.575626,135.563629,,,072-336-0606,,,,(福)アルマ会,,,,,,,,,,
270008,,大阪府,,藤井寺市立第1保育所,フジイデラシリツダイ１ホイクショ,,大阪府藤井寺市北岡1-4-17,,34.576118,135.594315,,,072-939-7108,,,,藤井寺市,,,,,,,,,,
270008,,大阪府,,清水保育園,シミズホイクエン,,大阪府松原市南新町5-13-4,,34.576515,135.533325,,,072-335-1050,,,,(福)三和福祉会,,,,,,,,,,
270008,,大阪府,,藤井寺市立第6保育所,フジイデラシリツダイ６ホイクショ,,大阪府藤井寺市小山1-16-18,,34.577545,135.592575,,,072-938-0909,,,,藤井寺市,,,,,,,,,,
270008,,大阪府,,松原市立第７保育所,マツバラシリツダイ７ホイクショ,,大阪府松原市一津屋町3-4-32,,34.57872,135.570602,,,072-335-6116,,,,松原市,,,,,,,,,,
270008,,大阪府,,ピヨピヨ保育園,ピヨピヨホイクエン,,大阪府松原市西野々2-3-5,,34.578751,135.56485,,,072-333-8066,,,,(福)ピヨピヨ福祉会,,,,,,,,,,
270008,,大阪府,,松原カリーノ保育園,マツバラカリーノホイクエン,,大阪府松原市東新町2-210,,34.579384,135.540344,,,072-334-6080,,,,(福)ユタカ福祉会,,,,,,,,,,
270008,,大阪府,,松原市立第４保育所,マツバラシリツダイ４ホイクショ,,大阪府松原市天美我堂3-124-10,,34.581894,135.524582,,,072-335-5660,,,,松原市,,,,,,,,,,
270008,,大阪府,,阿保くすの木保育園,アオクスノキホイクエン,,大阪府松原市阿保2-23-2,,34.582016,135.553909,,,072-336-8928,,,,(福)大阪福祉事業財団,,,,,,,,,,
270008,,大阪府,,ことり保育園（青い鳥学園分園）,コトリホイクエン,,大阪府松原市天美南5-4-8,,34.584415,135.532822,,,072-349-6144,,,,(福)今川福祉会,,,,,,,,,,
270008,,大阪府,,みつばち保育園,ミツバチホイクエン,,大阪府松原市三宅西2-466-4,,34.584435,135.544388,,,072-336-4900,,,,(福)あおば福祉会,,,,,,,,,,
270008,,大阪府,,松原保育園,マツバラホイクエン,,大阪府松原市松ヶ丘3-845,,34.584442,135.55983,,,072-337-9477,,,,(福)立青福祉会,,,,,,,,,,
270008,,大阪府,,青い鳥学園,アオイトリガクエン,,大阪府松原市天美南1-202,,34.584488,135.540604,,,072-332-0580,,,,(福)今川福祉会,,,,,,,,,,
270008,,大阪府,,柏原市立柏原保育所,カシワラシリツカシワラホイクショ,,大阪府柏原市大正1-9-54,,34.587399,135.621323,,,072-972-1413,,,,柏原市,,,,,,,,,,
270008,,大阪府,,天美保育園,アマミホイクエン,,大阪府松原市天美東8-6-35,,34.588017,135.533234,,,072-332-0341,,,,(福)立青福祉会,,,,,,,,,,
270008,,大阪府,,柏原市立柏原西保育所,カシワラシリツカシワラニシホイクショ,,大阪府柏原市大正3-8-8,,34.588051,135.615448,,,072-973-0454,,,,柏原市,,,,,,,,,,
270008,,大阪府,,まどか保育園,マドカホイクエン,,大阪府柏原市大県4-631,,34.58847,135.632874,,,072-971-4520,,,,(福)大幸福祉会,,,,,,,,,,
270008,,大阪府,,みずほ保育園,ミズホホイクエン,,大阪府柏原市大県1-3-22,,34.58968,135.626617,,,072-972-0822,,,,(福)豊昌福祉会,,,,,,,,,,
270008,,大阪府,,柏原市立堅下保育所,カシワラシリツカタシモホイクショ,,大阪府柏原市平野1-6-2,,34.592182,135.629761,,,072-972-3776,,,,柏原市,,,,,,,,,,
270008,,大阪府,,天美北保育園,アマミキタホイクエン,,大阪府松原市天美北1-360-1,,34.593769,135.539413,,,072-339-1750,,,,(福)立青福祉会,,,,,,,,,,
270008,,大阪府,,かしわ保育園,カシワホイクエン,,大阪府柏原市法善寺3-600-2,,34.59639,135.622421,,,072-973-0521,,,,(福)英芳会,,,,,,,,,,
270008,,大阪府,,法善寺保育園,ホウゼンジホイクエン,,大阪府柏原市法善寺3-801,,34.596546,135.624176,,,072-971-2612,,,,(福)不易創造館,,,,,,,,,,
270008,,大阪府,,灰塚保育園,ハイヅカホイクエン,,大阪府大東市灰塚5-2-33,,34.698025,135.610825,,,072-871-5422,,,,(福)秀英会,,,,,,,,,,
270008,,大阪府,,新町保育園,シンマチホイクエン,,大阪府大東市川中新町9-1,,34.704235,135.624603,,,072-874-2881,,,,(福)秀英会,,,,,,,,,,
270008,,大阪府,,泉保育園,イズミホイクエン,,大阪府大東市泉町1-3-2,,34.707504,135.633102,,,072-873-9638,,,,(福)秀英会,,,,,,,,,,
270008,,大阪府,,新田保育園,シンデンホイクエン,,大阪府大東市新田中町4-9,,34.708195,135.60228,,,072-870-6680,,,,(福)朋友福祉会,,,,,,,,,,
270008,,大阪府,,大東市立南郷保育所,ダイトウシリツナンゴウホイクショ,,大阪府大東市太子田3-1-20,,34.710144,135.610229,,,072-872-7327,,,,大東市,,,,,,,,,,
270008,,大阪府,,ひらりす保育園,ヒラリスホイクエン,,大阪府大東市野崎4-5-6,,34.714581,135.641068,,,072-803-2020,,,,(学)明善学園,,,,,,,,,,
270008,,大阪府,,氷野保育園,ヒノホイクエン,,大阪府大東市大東町10-15,,34.714767,135.619049,,,072-871-7321,,,,(福)日乃本会,,,,,,,,,,
270008,,大阪府,,大東市立野崎保育所,ダイトウシリツノザキホイクショ,,大阪府大東市野崎1-6-35,,34.718861,135.638885,,,072-876-5630,,,,大東市,,,,,,,,,,
270008,,大阪府,,江ノ口保育園,エノクチホイクエン,,大阪府大東市三箇4-16-16,,34.721317,135.624374,,,072-874-5640,,,,(福)江山会,,,,,,,,,,
270008,,大阪府,,守口のぎく保育園,モリグチノギクホイクエン,,大阪府守口市西郷通3-5-5,,34.728374,135.572632,,,06-6439-8160,,,,(福)野の花福祉会,,,,,,,,,,
270008,,大阪府,,大東市立北条保育所,ダイトウシリツホウジョウホイクショ,,大阪府大東市北条3-9-18,,34.730141,135.64389,,,072-876-5237,,,,大東市,,,,,,,,,,
270008,,大阪府,,めぐみ保育園,メグミホイクエン,,大阪府門真市四宮5-6-15,,34.735016,135.616104,,,072-881-0295,,,,(社)めぐみ保育園,,,,,,,,,,
270008,,大阪府,,門真保育園,カドマホイクエン,,大阪府門真市本町19-5,,34.735939,135.577316,,,06-6908-2514,,,,(社)愛美会,,,,,,,,,,
270008,,大阪府,,畷すずらん保育園,ナワテスズランホイクエン,,大阪府四條畷市米崎町7-26,,34.737686,135.640045,,,072-863-1111,,,,(福)ふみわ福祉会,,,,,,,,,,
270008,,大阪府,,畷アサヒケ丘保育園,ナワテアサヒガオカホイクエン,,大阪府四條畷市南野6-9-70,,34.737774,135.649918,,,072-879-2003,,,,(福)清松会,,,,,,,,,,
270008,,大阪府,,畷たんぽぽ保育園,ナワテタンポポホイクエン,,大阪府四條畷市大字清瀧445-の9,,34.739876,135.64711,,,072-863-3368,,,,(福)たんぽぽ福祉会,,,,,,,,,,
270008,,大阪府,,すえひろ保育園,スエヒロホイクエン,,大阪府門真市末広町2-15,,34.740284,135.594116,,,06-6909-1588,,,,(社)雅福祉会,,,,,,,,,,
270008,,大阪府,,門真市立上野口保育園,カドマシリツカミノグチホイクエン,,大阪府門真市上野口町46-13,,34.740345,135.609497,,,072-882-0372,,,,門真市,,,,,,,,,,
270008,,大阪府,,あい保育園浜町,アイホイクエンハママチ,,大阪府守口市浜町2-1-4,,34.740959,135.567566,,,06-6991-5100,,,,(株)アイグラン,,,,,,,,,,
270008,,大阪府,,北巣本保育園,キタスモトホイクエン,,大阪府門真市北巣本町37-11,,34.741814,135.619949,,,072-881-0546,,,,(社)北巣本福祉会,,,,,,,,,,
270008,,大阪府,,いずみっこ保育園,イズミッコホイクエン,,大阪府門真市泉町3-6,,34.742153,135.584396,,,06-6914-4100,,,,(社)交野ひまわり園,,,,,,,,,,
270008,,大阪府,,四條畷市立岡部保育所,シジョウナワテシリツオカベホイクショ,,大阪府四條畷市砂1-8-13,,34.744076,135.63443,,,072-878-4400,,,,四條畷市,,,,,,,,,,
270008,,大阪府,,門真市立浜町保育園,カドマシリツハママチホイクエン,,大阪府門真市浜町22-63,,34.745312,135.586868,,,06-4304-4015,,,,門真市,,,,,,,,,,
270008,,大阪府,,オリンピアおおぞら保育園,オリンピアオオゾラホイクエン,,大阪府守口市藤田町5-2-5,,34.745522,135.600388,,,06-6902-2250,,,,(福)白ばら学園,,,,,,,,,,
270008,,大阪府,,あい保育園大日東,アイホイクエンダイニチヒガシ,,大阪府守口市大日東町30-6,,34.751049,135.582748,,,06-6995-4380,,,,(株)アイグラン,,,,,,,,,,
270008,,大阪府,,吹田市立吹六保育園,スイタシリツスイロクホイクエン,,大阪府吹田市南清和園町40-31,,34.753216,135.515305,,,06-6319-0237,,,,吹田市,,,,,,,,,,
270008,,大阪府,,南保育園,ミナミホイクエン,,大阪府吹田市穂波町15-30,,34.75547,135.511826,,,06-6386-3900,,,,(福)こばと会,,,,,,,,,,
270008,,大阪府,,吹田市立吹一保育園,スイタシリツスイイチホイクエン,,大阪府吹田市内本町1-23-28,,34.75721,135.521484,,,06-6382-7782,,,,吹田市,,,,,,,,,,
270008,,大阪府,,摂津さつき保育園,セッツサツキホイクエン,,大阪府摂津市南別府町7-1,,34.760399,135.552933,,,06-6349-7151,,,,(福)摂津会,,,,,,,,,,
270008,,大阪府,,稲荷学園,イナリガクエン,,大阪府吹田市豊津町38-1,,34.760899,135.489639,,,06-6384-4038,,,,(福)稲荷学園,,,,,,,,,,
270008,,大阪府,,こばと保育園,コバトホイクエン,,大阪府吹田市高城町20-6,,34.76144,135.531189,,,06-6383-2640,,,,(福)こばと会,,,,,,,,,,
270008,,大阪府,,吹田市立いずみ保育園,スイタシリツイズミホイクエン,,大阪府吹田市泉町2-11-43,,34.761967,135.514969,,,06-6388-6088,,,,吹田市,,,,,,,,,,
270008,,大阪府,,吹田どんぐり保育園,スイタドングリホイクエン,,大阪府吹田市昭和町8-24,,34.763367,135.52652,,,06-6381-5331,,,,(福)くぬぎ会,,,,,,,,,,
270008,,大阪府,,吹田市立片山保育園,スイタシリツカタヤマホイクエン,,大阪府吹田市出口町32-1,,34.765007,135.513809,,,06-6380-9558,,,,吹田市,,,,,,,,,,
270008,,大阪府,,吹田市立垂水保育園,スイタシリツタルミホイクエン,,大阪府吹田市垂水町1-6-9,,34.765553,135.507599,,,06-6386-2974,,,,吹田市,,,,,,,,,,
270008,,大阪府,,吹田保育園,スイタホイクエン,,大阪府吹田市昭和町24-1,,34.765877,135.527267,,,06-6381-1782,,,,(福)こばと会,,,,,,,,,,
270008,,大阪府,,双葉保育園,フタバホイクエン,,大阪府吹田市江坂町3-12-16,,34.766792,135.494232,,,06-6338-5115,,,,(福)くぬぎ会,,,,,,,,,,
270008,,大阪府,,摂津市立鳥飼保育所,セッツシリツトリカイホイクショ,,大阪府摂津市鳥飼西3-1-2,,34.768772,135.580643,,,072-654-5960,,,,摂津市,,,,,,,,,,
270008,,大阪府,,吹田市立東保育園,スイタシリツヒガシホイクエン,,大阪府吹田市南正雀4-1-1,,34.769032,135.541962,,,06-6382-7010,,,,吹田市,,,,,,,,,,
270008,,大阪府,,吹田ポッポひかり保育園,スイタポッポヒカリホイクエン,,大阪府吹田市江坂町5-17-13,,34.769402,135.498154,,,06-6190-7511,,,,(株)ベル企画,,,,,,,,,,
270008,,大阪府,,摂津市立別府保育所,セッツシリツベフホイクショ,,大阪府摂津市東別府5-1-13,,34.769756,135.558655,,,06-6349-5500,,,,摂津市,,,,,,,,,,
270008,,大阪府,,摂津ひかりにこにこ保育園,セッツヒカリニコニコホイクエン,,大阪府摂津市鳥飼八防2-6-11,,34.770256,135.573883,,,072-654-2255,,,,(学)成晃学院,,,,,,,,,,
270008,,大阪府,,藤森保育園,フジノモリホイクエン,,大阪府摂津市鳥飼西2-1-1,,34.771919,135.582367,,,072-654-5767,,,,(宗)藤森神社,,,,,,,,,,
270008,,大阪府,,吹田市立千三保育園,スイタシリツセンサンホイクエン,,大阪府吹田市千里山西1-12-1,,34.77235,135.504288,,,06-6386-9178,,,,吹田市,,,,,,,,,,
270008,,大阪府,,吹田市立ことぶき保育園,スイタシリツコトブキホイクエン,,大阪府吹田市岸部中2-2-1,,34.775124,135.532425,,,06-6388-4411,,,,吹田市,,,,,,,,,,
270008,,大阪府,,吹田市立千里山保育園,スイタシリツセンリヤマホイクエン,,大阪府吹田市千里山東2-19-22,,34.777138,135.506866,,,06-6389-2200,,,,吹田市,,,,,,,,,,
270008,,大阪府,,吹田市立岸部保育園,スイタシリツキシベホイクエン,,大阪府吹田市岸部北2-2-2,,34.777485,135.532013,,,06-6389-2838,,,,吹田市,,,,,,,,,,
270008,,大阪府,,岸部敬愛保育園,キシベケイアイホイクエン,,大阪府吹田市岸部中3-19-19,,34.779209,135.536652,,,06-6387-2320,,,,(福)敬愛福祉会,,,,,,,,,,
270008,,大阪府,,マーヤ敬愛保育園,マーヤケイアイホイクエン,,大阪府吹田市岸部北1-15-8,,34.780811,135.528488,,,06-6378-0808,,,,(福)敬愛福祉会,,,,,,,,,,
270008,,大阪府,,千里山くじら保育園,センリヤマクジラホイクエン,,大阪府吹田市千里山虹が丘21-6,,34.781101,135.507996,,,06-6369-5515,,,,(福)くじら,,,,,,,,,,
270008,,大阪府,,吹田ポッポたけぞの保育園,スイタポッポタケゾノホイクエン,,大阪府吹田市千里山竹園1-11-2,,34.782009,135.497452,,,06-6192-8688,,,,(株)ベル企画,,,,,,,,,,
270008,,大阪府,,わかば保育園,ワカバホイクエン,,大阪府摂津市庄屋2-4-28,,34.783318,135.551575,,,06-6319-1229,,,,(特)わかば共同保育所,,,,,,,,,,
270008,,大阪府,,佐井寺たんぽぽ保育園,サイデラタンポポホイクエン,,大阪府吹田市佐井寺2-20-4,,34.785118,135.516373,,,06-6388-3327,,,,(福)くぬぎ会,,,,,,,,,,
270008,,大阪府,,ポポラー大阪南千里丘園,ポポラーオオサカミナミセンリオカエン,,大阪府摂津市南千里丘6-37,,34.785896,135.553864,,,06-6317-1090,,,,(株)タスク・フォースミテラ,,,,,,,,,,
270008,,大阪府,,あびにょん保育園,アビニョンホイクエン,,大阪府吹田市岸部北5-45-1,,34.786575,135.53183,,,06-6878-0008,,,,(福)紫峯曾,,,,,,,,,,
270008,,大阪府,,さくら保育園,サクラホイクエン,,大阪府吹田市山田南45-10,,34.788044,135.535477,,,06-6878-4322,,,,(福)こばと会,,,,,,,,,,
270008,,大阪府,,勝久寺保育園,ショウキュウジホイクエン,,大阪府摂津市千里丘東3-4-5,,34.788757,135.552887,,,072-622-6070,,,,(宗)勝久寺,,,,,,,,,,
270008,,大阪府,,千里丘愛育園,センリオカアイイクエン,,大阪府摂津市千里丘3-16-7,,34.789051,135.545059,,,06-6387-7172,,,,(福)成光苑,,,,,,,,,,
270008,,大阪府,,吹田市立南千里保育園,スイタシリツミナミセンリホイクエン,,大阪府吹田市桃山台1-4-1,,34.791122,135.50502,,,06-6871-0767,,,,吹田市,,,,,,,,,,
270008,,大阪府,,きりん夜間愛育園,キリンヤカンアイイクエン,,大阪府吹田市長野東13-5,,34.79126,135.544479,,,06-6878-0255,,,,(福)成光苑,,,,,,,,,,
270008,,大阪府,,第二愛育園,ダイニアイイクエン,,大阪府吹田市長野東13-5,,34.79126,135.544479,,,06-6878-5551,,,,(福)成光苑,,,,,,,,,,
270008,,大阪府,,千里丘愛育園分園ひよこ園,センリオカアイイクエンブンエンヒヨコエン,,大阪府摂津市千里丘1-10-12,,34.791531,135.548981,,,06-6310-7500,,,,(福)成光苑,,,,,,,,,,
270008,,大阪府,,さくらんぼ保育園,サクランボホイクエン,,大阪府吹田市山田西1-32-12,,34.79158,135.52829,,,06-4864-2345,,,,(福)こばと会,,,,,,,,,,
270008,,大阪府,,摂津市立子育て総合支援センター,セッツシリツコソダテソウゴウシエンセンター,,大阪府摂津市千里丘東1-16-2,,34.792038,135.554962,,,072-631-9428,,,,摂津市,,,,,,,,,,
270008,,大阪府,,あいの南千里駅前保育園,アイノミナミセンリエキマエホイクエン,,大阪府吹田市佐竹台1-6-1-1,,34.7924,135.50824,,,06-6170-2422,,,,(福)藍野福祉会,,,,,,,,,,
270008,,大阪府,,吹田市立山三保育園,スイタシリツヤマサンホイクエン,,大阪府吹田市山田西1-27-15,,34.792568,135.529846,,,06-6876-4602,,,,吹田市,,,,,,,,,,
270008,,大阪府,,第二愛育園分園うさぎ園,ダイニアイイクエンブンエンウサギエン,,大阪府吹田市千里丘下2-7,,34.792751,135.546585,,,06-6878-5551,,,,(福)成光苑,,,,,,,,,,
270008,,大阪府,,吹田市立山田保育園,スイタシリツヤマダホイクエン,,大阪府吹田市山田市場19-9,,34.792854,135.540436,,,06-6878-0223,,,,吹田市,,,,,,,,,,
270008,,大阪府,,南山田みどり保育園,ミナミヤマダミドリホイクエン,,大阪府吹田市長野東26-11,,34.793613,135.543228,,,06-6876-3713,,,,(福)吹田若竹会,,,,,,,,,,
270008,,大阪府,,のんの敬愛保育園,ノンノケイアイホイクエン,,大阪府吹田市山田西2-4-3,,34.794533,135.528259,,,06-6877-8577,,,,(福)山田敬愛福祉会,,,,,,,,,,
270008,,大阪府,,玉川学園高野公園保育園,タマガワガクエンタカノコウエンホイクエン,,大阪府吹田市高野台1-4-20,,34.795189,135.515717,,,06-6834-5560,,,,(福)玉川学園,,,,,,,,,,
270008,,大阪府,,千里聖愛保育センター,センリセイアイホイクセンター,,大阪府吹田市竹見台1-2-1,,34.796387,135.504868,,,06-6871-0726,,,,(福)千里聖愛保育センタ−,,,,,,,,,,
270008,,大阪府,,吹田市立西山田保育園,スイタシリツニシヤマダホイクエン,,大阪府吹田市山田西2-14-1,,34.798149,135.523239,,,06-6877-3536,,,,吹田市,,,,,,,,,,
270008,,大阪府,,千里の丘けいあい保育園,センリノオカケイアイホイクエン,,大阪府吹田市山田東4-7-31,,34.801098,135.523682,,,06-6875-0011,,,,(福)智恩福祉会,,,,,,,,,,
270008,,大阪府,,たんぽぽbambi保育園,タンポポバンビホイクエン,,大阪府茨木市玉櫛2-10-5,,34.801846,135.573776,,,072-632-0666,,,,(福)つつみ会,,,,,,,,,,
270008,,大阪府,,あやめ保育園,アヤメホイクエン,,大阪府吹田市津雲台4-9-1,,34.802746,135.511383,,,06-6871-0061,,,,(福)愛の園,,,,,,,,,,
270008,,大阪府,,住吉保育園,スミヨシホイクエン,,大阪府池田市住吉1-5-8,,34.8032,135.439438,,,072-761-1264,,,,(学)亀之森住吉学園,,,,,,,,,,
270008,,大阪府,,東奈良敬愛保育園,ヒガシナラケイアイホイクエン,,大阪府茨木市東奈良3-3-1,,34.805138,135.567856,,,072-630-1100,,,,(福)智恩福祉会,,,,,,,,,,
270008,,大阪府,,トレジャーキッズあおばおか保育園,トレジャーキッズアオバオカホイクエン,,大阪府吹田市青葉丘北7-26,,34.807564,135.549698,,,06-6155-6989,,,,(株)セリオ,,,,,,,,,,
270008,,大阪府,,水尾保育園,ミズオホイクエン,,大阪府茨木市水尾1-12-15,,34.808311,135.576477,,,072-635-8350,,,,(福)穂積福祉会,,,,,,,,,,
270008,,大阪府,,わくわく保育園,ワクワクホイクエン,,大阪府池田市石橋2-12-11,,34.80909,135.44635,,,072-760-5075,,,,(福)慈光福祉会,,,,,,,,,,
270008,,大阪府,,天神保育園,テンジンホイクエン,,大阪府池田市天神1-1-13,,34.810192,135.439926,,,072-761-3887,,,,(学)亀之森住吉学園,,,,,,,,,,
270008,,大阪府,,瀬川保育園,セガワホイクエン,,大阪府箕面市瀬川3-2-6,,34.812374,135.45488,,,072-723-2302,,,,(福)あおば福祉会,,,,,,,,,,
270008,,大阪府,,ゆめひだまり保育園,ユメヒダマリホイクエン,,大阪府茨木市主原町3-3,,34.812954,135.573349,,,072-635-8477,,,,(福)志陽会,,,,,,,,,,
270008,,大阪府,,ひだまり保育園,ヒダマリホイクエン,,大阪府茨木市園田町15-3,,34.813835,135.581375,,,072-635-8477,,,,(福)志陽会,,,,,,,,,,
270008,,大阪府,,保育園下穂積キッズ,ホイクエンシモホヅミキッズ,,大阪府茨木市下穂積3-5-30,,34.813869,135.554565,,,072-627-2541,,,,(福)耀き福祉会,,,,,,,,,,
270008,,大阪府,,池田市立石橋保育所,イケダシリツイシバシホイクショ,,大阪府池田市井口堂3-4-35,,34.814751,135.446014,,,072-762-2736,,,,池田市,,,,,,,,,,
270008,,大阪府,,こうせい保育園,コウセイホイクエン,,大阪府池田市宇保町9-7,,34.816177,135.429321,,,072-753-6300,,,,(福)興誓会,,,,,,,,,,
270008,,大阪府,,てんのう中津保育園,テンノウナカツホイクエン,,大阪府茨木市中津町14-28,,34.816196,135.580856,,,072-635-4500,,,,(福)天王福祉会,,,,,,,,,,
270008,,大阪府,,さくらんぼこども園,サクランボコドモエン,,大阪府茨木市寺田町12-16,,34.816597,135.586349,,,072-633-4722,,,,(特)さくらんぼこども園,,,,,,,,,,
270008,,大阪府,,マリモglobal kids,マリモグローバルキッズ,,大阪府茨木市西駅前町3-9,,34.816898,135.562851,,,072-621-6300,,,,(株)マリモｃｏｌｌｅｇｅ,,,,,,,,,,
270008,,大阪府,,アートチャイルドケア箕面,アートチャイルドケアミノオ,,大阪府箕面市桜井2-11-16,,34.817924,135.463684,,,072-720-0234,,,,(株)アートチャイルドケア,,,,,,,,,,
270008,,大阪府,,さくらさくみらい　箕面,サクラサクミライミノオ,,大阪府箕面市船場西3-6-3,,34.818554,135.490204,,,072-737-8239,,,,(株)さくらさくみらい,,,,,,,,,,
270008,,大阪府,,鮎川保育園,アユカワホイクエン,,大阪府茨木市鮎川2-22-20,,34.818848,135.592209,,,072-633-0006,,,,(福)山善福祉会,,,,,,,,,,
270008,,大阪府,,茨木市立中央保育所,イバラキシリツチュウオウホイクショ,,大阪府茨木市宮元町2-34,,34.81942,135.574631,,,072-626-2200,,,,茨木市,,,,,,,,,,
270008,,大阪府,,なかよしわんぱく保育園,ナカヨシワンパクホイクエン,,大阪府茨木市上穂東町1-13,,34.820427,135.560608,,,072-627-2021,,,,(福)穂積福祉会,,,,,,,,,,
270008,,大阪府,,なかよしわんぱく保育園（分園）,ナカヨシワンパクホイクエン（ブンエン）,,大阪府茨木市上穂東町1-29,,34.820515,135.561386,,,072-627-2021,,,,(福)穂積福祉会,,,,,,,,,,
270008,,大阪府,,箕面市立桜ケ丘保育所,ミノオシリツサクラガオカホイクショ,,大阪府箕面市桜ｹ丘3-12-5,,34.821369,135.456406,,,072-723-8118,,,,箕面市,,,,,,,,,,
270008,,大阪府,,藤白台保育園,フジシロダイホイクエン,,大阪府吹田市藤白台4-8-1,,34.821861,135.514618,,,06-6831-4500,,,,(福)耕心会,,,,,,,,,,
270008,,大阪府,,中央保育園,チュウオウホイクエン,,大阪府池田市上池田2-2-34,,34.821911,135.43306,,,072-751-8160,,,,(学)森上学園,,,,,,,,,,
270008,,大阪府,,箕面市立稲保育所,ミノオシリツイナホイクショ,,大阪府箕面市船場西1-11-9,,34.82206,135.48613,,,072-728-5000,,,,箕面市,,,,,,,,,,
270008,,大阪府,,あい保育園　牧落,アイホイクエンマキオチ,,大阪府箕面市牧落2-5-15,,34.822182,135.470657,,,072-736-9650,,,,(株)アイグラン,,,,,,,,,,
270008,,大阪府,,ほづみ保育園,ホヅミホイクエン,,大阪府茨木市上穂積2-3-45,,34.822422,135.558334,,,072-627-5200,,,,(福)穂積福祉会,,,,,,,,,,
270008,,大阪府,,緑丘保育園,ミドリガオカホイクエン,,大阪府池田市緑丘2-5-15,,34.822498,135.442871,,,072-751-3319,,,,(学) 岡辻学園,,,,,,,,,,
270008,,大阪府,,きらきら保育園,キラキラホイクエン,,大阪府池田市室町7-7,,34.82262,135.422516,,,072-754-1820,,,,(株)利楽心,,,,,,,,,,
270008,,大阪府,,茨木市立春日保育所,イバラキシリツカスガホイクショ,,大阪府茨木市西田中町1-6,,34.824406,135.565842,,,072-623-2112,,,,茨木市,,,,,,,,,,
270008,,大阪府,,紅葉夢保育園,クレハユメホイクエン,,大阪府箕面市萱野5-7-30,,34.824547,135.482483,,,072-726-9614,,,,(福)夢工房,,,,,,,,,,
270008,,大阪府,,みのおっこ保育園,ミノオッコホイクエン,,大阪府箕面市萱野5-7-35,,34.824638,135.483017,,,072-734-7734,,,,(福)あおば福祉会,,,,,,,,,,
270008,,大阪府,,箕面ポッポ保育園,ミノオポッポホイクエン,,大阪府箕面市桜4-18-14,,34.824863,135.465958,,,072-722-5756,,,,(株)ベル企画,,,,,,,,,,
270008,,大阪府,,みすず学園桜ヶ丘保育園,ミスズガクエンサクラガオカホイクエン,,大阪府箕面市桜ヶ丘1-10-29,,34.825527,135.457886,,,072-720-7575,,,,(福)みすず学園福祉会,,,,,,,,,,
270008,,大阪府,,はたの保育園,ハタノホイクエン,,大阪府池田市畑1-22-1,,34.826778,135.448776,,,072-753-3314,,,,(福)心育会,,,,,,,,,,
270008,,大阪府,,五月丘保育園,サツキガオカホイクエン,,大阪府池田市五月丘3-2-14,,34.826862,135.435608,,,072-753-2875,,,,(福)山善福祉会,,,,,,,,,,
270008,,大阪府,,箕面市立東保育所,ミノオシリツヒガシホイクショ,,大阪府箕面市栗生外院5-2-1,,34.826942,135.470551,,,072-728-4858,,,,箕面市,,,,,,,,,,
270008,,大阪府,,トレジャーキッズにしじゅく保育園,トレジャーキッズニシジュクホイクエン,,大阪府箕面市西宿2-21-19,,34.827782,135.489273,,,072-749-3008,,,,(株)セリオ,,,,,,,,,,
270008,,大阪府,,箕面市立萱野保育所,ミノオシリツカヤノホイクショ,,大阪府箕面市萱野1-19-30,,34.831326,135.483932,,,072-723-5400,,,,箕面市,,,,,,,,,,
270008,,大阪府,,箕面保育園,ミノオホイクエン,,大阪府箕面市箕面5-12-30,,34.831787,135.473175,,,072-723-5252,,,,(福)あおば福祉会,,,,,,,,,,
270008,,大阪府,,もみじ保育園,モミジホイクエン,,大阪府箕面市今宮2-4-25,,34.832523,135.498718,,,072-729-7371,,,,(福)今宮福祉会,,,,,,,,,,
270008,,大阪府,,さいのもと保育園,サイノモトホイクエン,,大阪府茨木市豊川4-33-8,,34.833424,135.528397,,,072-643-1279,,,,(福)とよかわ福祉会,,,,,,,,,,
270008,,大阪府,,めばえ保育園,メバエホイクエン,,大阪府箕面市箕面6-10-19,,34.833843,135.468018,,,072-741-1127,,,,(株)もみじ企画,,,,,,,,,,
270008,,大阪府,,トレジャーキッズいまみや保育園,トレジャーキッズイマミヤホイクエン,,大阪府箕面市今宮3-8-2,,34.834072,135.500732,,,072-737-6033,,,,(株)セリオ,,,,,,,,,,
270008,,大阪府,,小野原学園,オノハラガクエン,,大阪府箕面市小野原西1-12-41,,34.834221,135.514481,,,072-729-2668,,,,(福)ゆたか福祉会,,,,,,,,,,
270008,,大阪府,,つばさ学園,ツバサガクエン,,大阪府箕面市外院1-2-3,,34.835346,135.502548,,,072-729-0283,,,,(福)ゆたか福祉会,,,,,,,,,,
270008,,大阪府,,茨木市立郡保育所,イバラキシリツコオリホイクショ,,大阪府茨木市郡5-29-4,,34.835476,135.553009,,,072-641-2210,,,,茨木市,,,,,,,,,,
270008,,大阪府,,常照寺隣保館保育園,ジョウショウジリンポカンホイクエン,,大阪府箕面市白島2-15-12,,34.836525,135.489502,,,072-723-1075,,,,(財)常照寺隣保館,,,,,,,,,,
270008,,大阪府,,こぐまの森保育園　箕面園,コグマノモリホイクエンミノオエン,,大阪府箕面市粟生外院2-16-30,,34.842445,135.50267,,,072-729-1680,,,,(株)ワークプロジェクト,,,,,,,,,,
270008,,大阪府,,トレジャーキッズあおみなみ保育園,トレジャーキッズアオミナミホイクエン,,大阪府箕面市彩都粟生南2-12-22,,34.846935,135.520599,,,072-734-8010,,,,(株)セリオ,,,,,,,,,,
270008,,大阪府,,こぐまの森保育園　箕面彩都園,コグマノモリホイクエンミノオサイトエン,,大阪府箕面市彩都粟生南2-12-32,,34.84766,135.520874,,,072-749-6100,,,,(株)ワークプロジェクト,,,,,,,,,,
270008,,大阪府,,法泉寺保育園,ホウセンジホイクエン,,大阪府箕面市粟生間谷東5-21-14,,34.847916,135.515015,,,072-729-3319,,,,(宗)法泉寺,,,,,,,,,,
270008,,大阪府,,池田市立古江保育所,イケダシリツフルエホイクショ,,大阪府池田市古江町4,,34.849277,135.42131,,,072-753-9100,,,,池田市,,,,,,,,,,
270008,,大阪府,,細河保育園,ホソカワホイクエン,,大阪府池田市東山町312,,34.850182,135.440186,,,072-753-3380,,,,(福)細河保育園,,,,,,,,,,
270008,,大阪府,,アスク彩都西保育園,アスクサイトニシホイクエン,,大阪府箕面市彩都粟生南1-18-38,,34.851139,135.522491,,,072-749-0850,,,,(株)日本保育サービス,,,,,,,,,,
270008,,大阪府,,彩都敬愛保育園,サイトケイアイホイクエン,,大阪府茨木市彩都あさぎ1-2-19,,34.854954,135.525314,,,072-640-1115,,,,(福)智恩福祉会,,,,,,,,,,
270008,,大阪府,,彩都みのり保育園,サイトミノリホイクエン,,大阪府箕面市彩都粟生南6-15-4,,34.856434,135.512436,,,072-749-1500,,,,(福)みのり会,,,,,,,,,,
270008,,大阪府,,ふしお台保育所,フシオダイホイクショ,,大阪府池田市伏尾台1-37,,34.860275,135.434143,,,072-751-1797,,,,(福)細河保育園,,,,,,,,,,
270008,,大阪府,,島本町立第四保育所,シマモトチョウリツダイヨンホイクショ,,大阪府三島郡島本町桜井2-7-1,,34.882523,135.662415,,,075-962-6376,,,,島本町,,,,,,,,,,
270008,,大阪府,,島本町立第二保育所,シマモトチョウリツダイニホイクショ,,大阪府三島郡島本町広瀬5-2-22,,34.882637,135.668442,,,075-961-0960,,,,島本町,,,,,,,,,,
270008,,大阪府,,山崎保育園,ヤマザキホイクエン,,大阪府三島郡島本町山崎2-1-6,,34.889404,135.675735,,,075-961-2041,,,,(福)大阪水上隣保館,,,,,,,,,,
270008,,大阪府,,森町友星保育園,シンマチユウセイホイクエン,,大阪府箕面市森町中1-1-6,,34.890282,135.45929,,,072-738-0303,,,,(学)山脇学園,,,,,,,,,,
270008,,大阪府,,豊能町立吉川保育所,　トヨノチョウリツヨシカワホイクショ,,大阪府豊能郡豊能町吉川201,,34.917225,135.457703,,,072-739-0071 ,,,,豊能町,,,,,,,,,,
270008,,大阪府,,能勢町立のせ保育所,ノセチョウリツノセホイクショ,,大阪府豊能郡能勢町今西25-1,,34.967514,135.389847,,,072-734-0079,,,,能勢町,,,,,,,,,,
270008,,大阪府,,光陽保育園,コウヨウホイクエン,,大阪府岸和田市下松町4-1-13,,34.456098,135.397912,,,072-427-8855,,,,(福)光陽会,,,,,,,,,,
270008,,大阪府,,玉川学園保育園,タマガワガクエンホイクエン,,大阪府吹田市高野台4-2-10,,34.793526,135.521072,,,06-6835-8400,,,,(福)玉川学園,,,,,,,,,,
270008,,大阪府,,保育園千里山キッズ,ホイクエンセンリヤマキッズ,,大阪府吹田市千里山竹園1-24-12,,34.782291,135.50206,,,06-6170-3301,,,,(福)耀き福祉会,,,,,,,,,,
270008,,大阪府,,トレジャーキッズえのき保育園,トレジャーキッズエノキホイクエン,,大阪府吹田市江の木町14-10,,34.755161,135.494583,,,06-6155-8825,,,,(株)セリオ,,,,,,,,,,
270008,,大阪府,,茨木市立沢良宜保育所,イバラキシリツサワラギホイクショ,,大阪府茨木市沢良宣浜3-13-27,,34.79335,135.572611,,,072-635-5678,,,,茨木市,,,,,,,,,,
270008,,大阪府,,茨木市立総持寺保育所,イバラキシリツソウジジホイクショ,,大阪府茨木市総持寺2-2-15,,34.830067,135.585953,,,072-623-4367,,,,茨木市,,,,,,,,,,
270008,,大阪府,,玉島保育園,タマシマホイクエン,,大阪府茨木市平田2-36-13,,34.80328,135.589828,,,072-635-5700,,,,(福)親和会,,,,,,,,,,
270008,,大阪府,,津の辺保育園,ツノベホイクエン,,大阪府大東市南津の辺町2-32,,34.722797,135.634506,,,072-876-8327,,,,(福)たんぽぽ福祉会,,,,,,,,,,
270008,,大阪府,,和泉市立芦部保育園,イズミシリツアシベホイクエン,,大阪府和泉市芦部町250,,34.480392,135.44223,,,0725-41-1297,,,,和泉市,,,,,,,,,,
270008,,大阪府,,桜保育園,サクラホイクエン,,大阪府箕面市桜2-15-14,,34.828609,135.463028,,,072-724-9614,,,,(福)夢工房,,,,,,,,,,
270008,,大阪府,,郡戸保育園,コウズホイクエン,,大阪府羽曳野市郡戸394-2,,34.554157,135.576035,,,072-938-5280,,,,(福)郡戸福祉会,,,,,,,,,,
270008,,大阪府,,あおぞら保育園,アオゾラホイクエン,,大阪府羽曳野市古市2-2-27,,34.553532,135.613678,,,072-950-1105,,,,(福)羽曳野市社会福祉協議会,,,,,,,,,,
270008,,大阪府,,きらり保育園,キラリホイクエン,,大阪府大阪狭山市金剛2-13-16,,34.502686,135.558731,,,072-366-3707,,,,(福)光久福祉会,,,,,,,,,,
270008,,大阪府,,高浜学園,タカハマガクエン,,大阪府三島郡島本町高浜1-1-7,,34.875561,135.670197,,,075-963-2885,,,,(福)博乃会,,,,,,,,,,
270008,,大阪府,,岬町立多奈川保育所,ミサキチョウリツタナガワホイクショ,,大阪府泉南郡岬町多奈川1624,,34.315684,135.123839,,,072-495-5030,,,,岬町,,,,,,,,,,
